[{"pk": 1, "model": "core.skilllevel", "fields": {"name": "Bronze T1", "weight": 1}}, {"pk": 2, "model": "core.skilllevel", "fields": {"name": "Silver T1", "weight": 3}}, {"pk": 3, "model": "core.skilllevel", "fields": {"name": "Silver T2", "weight": 4}}, {"pk": 4, "model": "core.skilllevel", "fields": {"name": "Silver T3", "weight": 5}}, {"pk": 5, "model": "core.skilllevel", "fields": {"name": "Gold", "weight": 6}}, {"pk": 6, "model": "core.skilllevel", "fields": {"name": "Elite", "weight": 7}}, {"pk": 7, "model": "core.skilllevel", "fields": {"name": "Bronze T2", "weight": 2}}, {"pk": 1, "model": "core.seasonstatus", "fields": {"name": "Preparation"}}, {"pk": 2, "model": "core.seasonstatus", "fields": {"name": "Scheduling Seeding Games"}}, {"pk": 3, "model": "core.seasonstatus", "fields": {"name": "Seeding Games"}}, {"pk": 4, "model": "core.seasonstatus", "fields": {"name": "Scheduling Season Games"}}, {"pk": 5, "model": "core.seasonstatus", "fields": {"name": "Season Games"}}, {"pk": 6, "model": "core.seasonstatus", "fields": {"name": "Completed"}}, {"pk": 1, "model": "core.parameter", "fields": {"name": "stats.entry.limit", "value": "72"}}, {"pk": 2, "model": "core.parameter", "fields": {"name": "email.prefix", "value": "NIHL:"}}, {"pk": 3, "model": "core.parameter", "fields": {"name": "email.notifications.enable", "value": "0"}}, {"pk": 4, "model": "core.parameter", "fields": {"name": "email.from", "value": "NIHL Application <noreply@nihl.info>"}}, {"pk": 5, "model": "core.parameter", "fields": {"name": "email.noreply", "value": "noreply@nihl.info"}}, {"pk": 6, "model": "core.parameter", "fields": {"name": "site.hostname", "value": "nihlapp.vsemenov.webfactional.com"}}, {"pk": 1, "model": "core.eventtype", "fields": {"name": "Seeding Game"}}, {"pk": 2, "model": "core.eventtype", "fields": {"name": "Season Game"}}, {"pk": 3, "model": "core.eventtype", "fields": {"name": "Practice Game"}}, {"pk": 1, "model": "core.rink", "fields": {"city": "Addison", "contactPhone": "630-543-9200", "name": "Addison Ice Arena", "zip": "60101", "contactEmail": "Mark@mark.com", "state": "IL", "contactName": "Mark", "address": "475 S. Grace St."}}, {"pk": 2, "model": "core.rink", "fields": {"city": "Naperville", "contactPhone": "630-851-0755", "name": "All Seasons Ice Rink", "zip": "60563", "contactEmail": "All@all.com", "state": "IL", "contactName": "All", "address": "31 W 330 North Aurora Rd."}}, {"pk": 3, "model": "core.rink", "fields": {"city": "Rosemont", "contactPhone": "847-635-6601", "name": "Allstate Arena", "zip": "60018", "contactEmail": "allstate@allstate.com", "state": "IL", "contactName": "allstate", "address": "6920 N. Mannheim Rd."}}, {"pk": 4, "model": "core.rink", "fields": {"city": "Lake Forest", "contactPhone": "847-735-5285", "name": "Alumi Memorial Arena", "zip": "60045", "contactEmail": "Alumi@alumi.com", "state": "IL", "contactName": "Alumi", "address": "N. Sheridan Rd."}}, {"pk": 5, "model": "core.rink", "fields": {"city": "Lincolnwood", "contactPhone": "847-675-2950", "name": "American Heartland Ice Arena", "zip": "60712", "contactEmail": "american@american.com", "state": "IL", "contactName": "American", "address": "7384 Lincoln Ave."}}, {"pk": 6, "model": "core.rink", "fields": {"city": "Orland Park", "contactPhone": "708-403-4231", "name": "Arctic Ice Arena", "zip": "60462", "contactEmail": "arctic@artic.com", "state": "IL", "contactName": "Arctic", "address": "20700 West 160th St."}}, {"pk": 7, "model": "core.rink", "fields": {"city": "Lake Barrington", "contactPhone": "847-381-4777", "name": "Barrington Ice Arena", "zip": "60010", "contactEmail": "barrington@barrington.com", "state": "IL", "contactName": "Barrington", "address": "28205 West Commercial Ave."}}, {"pk": 8, "model": "core.rink", "fields": {"city": "Bridgeview", "contactPhone": "708-598-3738", "name": "Bridgeview Park District Arena", "zip": "60455", "contactEmail": "bridgeview@bridgeview.com", "state": "IL", "contactName": "Bridgeview", "address": "9645 S. 76th Ave."}}, {"pk": 9, "model": "core.rink", "fields": {"city": "Cahokia", "contactPhone": "618-337-9521", "name": "Cahokia Ice Rink", "zip": "62206", "contactEmail": "cahokia@cahokia.com", "state": "IL", "contactName": "Cahokia", "address": "200 Cahokia Park Dr."}}, {"pk": 10, "model": "core.rink", "fields": {"city": "Champaign", "contactPhone": "217-333-2081", "name": "Campus Recreation Ice Arena", "zip": "61820", "contactEmail": "campus@campus.com", "state": "IL", "contactName": "Campus", "address": "406 East Armory"}}, {"pk": 11, "model": "core.rink", "fields": {"city": "Loves Park (Rockford)", "contactPhone": "815-969-4069", "name": "Carlson Ice Arena", "zip": "61111", "contactEmail": "carlson@carlson.com", "state": "IL", "contactName": "carlson", "address": "4150 N. Perryville Rd."}}, {"pk": 12, "model": "core.rink", "fields": {"city": "Carol Stream", "contactPhone": "630-682-4480", "name": "Carol Stream Ice Rink", "zip": "60188", "contactEmail": "carol@carol.com", "state": "IL", "contactName": "Carol", "address": "540 E. Gundersen Dr."}}, {"pk": 13, "model": "core.rink", "fields": {"city": "Highland Park", "contactPhone": "847-432-4790", "name": "Centennial Ice Arena", "zip": "60035", "contactEmail": "centennial@centennial.com", "state": "IL", "contactName": "centennial", "address": "3100 Trailway Dr."}}, {"pk": 14, "model": "core.rink", "fields": {"city": "Wilmette", "contactPhone": "847-256-9666", "name": "Centennial Recreation Complex", "zip": "60091", "contactEmail": "centennial@centennial.com", "state": "IL", "contactName": "centenial", "address": "2300 Old Glenview Rd."}}, {"pk": 15, "model": "core.rink", "fields": {"city": "Glen Ellyn", "contactPhone": "630-790-9696", "name": "Center Ice of DuPage", "zip": "60137", "contactEmail": "center@center.com", "state": "IL", "contactName": "center", "address": "1 N 450 Highland Ave."}}, {"pk": 16, "model": "core.rink", "fields": {"city": "Peoria", "contactPhone": "309-673-4740", "name": "Civic Center Arena", "zip": "61602", "contactEmail": "civic@civic.com", "state": "IL", "contactName": "civic", "address": "201 SW Jefferson St."}}, {"pk": 17, "model": "core.rink", "fields": {"city": "Crystal Lake", "contactPhone": "815-356-8500", "name": "Crystal Ice House", "zip": "60014", "contactEmail": "crystal@crystal.com", "state": "IL", "contactName": "crystal", "address": "320 E. Prairie St."}}, {"pk": 18, "model": "core.rink", "fields": {"city": "Chicago", "contactPhone": "312-742-7650", "name": "Daley Bicentennial Plaza Rink", "zip": "60601", "contactEmail": "daley@daley.com", "state": "IL", "contactName": "daley", "address": "337 E. Randolph St."}}, {"pk": 19, "model": "core.rink", "fields": {"city": "Darien", "contactPhone": "630-789-6666", "name": "Darien Sportsplex", "zip": "60561", "contactEmail": "darien@darien.com", "state": "IL", "contactName": "darien", "address": "451 Plainfield Rd."}}, {"pk": 20, "model": "core.rink", "fields": {"city": "Danville", "contactPhone": "217-431-2424", "name": "David S. Palmer Arena", "zip": "61832", "contactEmail": "david@david.com", "state": "IL", "contactName": "david", "address": "100 W. Main St."}}, {"pk": 21, "model": "core.rink", "fields": {"city": "Decatur", "contactPhone": "217-422-7300", "name": "Decatur Civic Center", "zip": "62525", "contactEmail": "decatur@decatur.com", "state": "IL", "contactName": "Decatur", "address": "1 Gary K. Anderson Plaza"}}, {"pk": 22, "model": "core.rink", "fields": {"city": "Downers Grove", "contactPhone": "630-971-3780", "name": "Downers Grove Ice Arena", "zip": "60515", "contactEmail": "downer@downer.com", "state": "IL", "contactName": "Downer", "address": "5501 Walnut Ave."}}, {"pk": 23, "model": "core.rink", "fields": {"city": "East Alton", "contactPhone": "618-254-7465", "name": "East Alton Ice Arena", "zip": "62024", "contactEmail": "east@east.com", "state": "IL", "contactName": "East", "address": "631 Lewis & Clark Blvd."}}, {"pk": 24, "model": "core.rink", "fields": {"city": "Bensenville", "contactPhone": "630-766-8888", "name": "Edge II Ice Arena", "zip": "60106", "contactEmail": "edge@edge.com", "state": "IL", "contactName": "Edge", "address": "735 E. Jefferson St."}}, {"pk": 25, "model": "core.rink", "fields": {"city": "Elmhurst", "contactPhone": "630-834-9200", "name": "Elmhurst Family YMCA", "zip": "60126", "contactEmail": "elmhurst@elmhurst.com", "state": "IL", "contactName": "Elmhurst", "address": "211 W. 1st St."}}, {"pk": 26, "model": "core.rink", "fields": {"city": "Geneva", "contactPhone": "630-262-0690", "name": "Fox Valley Ice Arena & Fitness", "zip": "60134", "contactEmail": "fox@fox.com", "state": "IL", "contactName": "Fox", "address": "1996 South Kirk Rd."}}, {"pk": 27, "model": "core.rink", "fields": {"city": "Springfield", "contactPhone": "217-753-2800", "name": "Franklin Nelson Recreation Cen", "zip": "62702", "contactEmail": "franklin@franklin.com", "state": "IL", "contactName": "Franklin", "address": "1601 N. 5th St."}}, {"pk": 28, "model": "core.rink", "fields": {"city": "Franklin Park", "contactPhone": "847-671-4268", "name": "Franklin Park Ice Arena", "zip": "60131", "contactEmail": "franklin@franklin.com", "state": "IL", "contactName": "Franklin", "address": "9711 W. Waveland Ave."}}, {"pk": 29, "model": "core.rink", "fields": {"city": "Vernon Hills", "contactPhone": "847-362-1222", "name": "Glacier Ice Arena", "zip": "60061", "contactEmail": "glacier@glacier.com", "state": "IL", "contactName": "Glacier", "address": "670 N. Lakeview Pkwy."}}, {"pk": 30, "model": "core.rink", "fields": {"city": "Glenview", "contactPhone": "847-724-2800", "name": "Glenview Ice Center", "zip": "60026", "contactEmail": "glenview@glenview.com", "state": "IL", "contactName": "Glenview", "address": "1851 Landwehr Rd."}}, {"pk": 31, "model": "core.rink", "fields": {"city": "Granite City", "contactPhone": "618-877-2549", "name": "Granite City Ice Rink", "zip": "62040", "contactEmail": "granite@granite.com", "state": "IL", "contactName": "Granite", "address": "3000 Fehling Rd."}}, {"pk": 32, "model": "core.rink", "fields": {"city": "Hoffman Estates", "contactPhone": "847-885-7500", "name": "Hoffman Estates Park District ", "zip": "60195", "contactEmail": "hoffman@hoffman.com", "state": "IL", "contactName": "Hoffman", "address": "1685 W. Higgins Rd."}}, {"pk": 33, "model": "core.rink", "fields": {"city": "Homewood", "contactPhone": "708-957-0100", "name": "Homewood-Flossmoor Ice Arena", "zip": "60430", "contactEmail": "homewood@homewood.com", "state": "IL", "contactName": "Homewood", "address": "777 Kedzie Ave."}}, {"pk": 34, "model": "core.rink", "fields": {"city": "Lake Bluff", "contactPhone": "847-476-3474", "name": "Hot Shot Ice Arena", "zip": "60044", "contactEmail": "hot@hot.com", "state": "IL", "contactName": "Hot", "address": "29860 Skokie US-41"}}, {"pk": 35, "model": "core.rink", "fields": {"city": "Moline", "contactPhone": "309-764-2001", "name": "I Wireless Center", "zip": "61265", "contactEmail": "i@i.com", "state": "IL", "contactName": "I", "address": "1201 River Dr."}}, {"pk": 36, "model": "core.rink", "fields": {"city": "Niles", "contactPhone": "847-297-8010", "name": "Iceland Skate", "zip": "60714", "contactEmail": "iceland@iceland.com", "state": "IL", "contactName": "Iceland", "address": "8435 Ballard Rd."}}, {"pk": 37, "model": "core.rink", "fields": {"city": "Romeoville", "contactPhone": "815-886-4423", "name": "International Ice Center", "zip": "60446", "contactEmail": "international@international.co", "state": "IL", "contactName": "Internaitonal", "address": "1581 W. Normantown Rd."}}, {"pk": 38, "model": "core.rink", "fields": {"city": "Bloomington", "contactPhone": "309-829-3976", "name": "Interstate Center Inline Hocke", "zip": "60174", "contactEmail": "interstate@interstate.com", "state": "IL", "contactName": "Interstate", "address": "2301 W. Market St."}}, {"pk": 39, "model": "core.rink", "fields": {"city": "Joliet", "contactPhone": "815-741-7275", "name": "Inwood Recreation Center", "zip": "60435", "contactEmail": "inwood@inwood.com", "state": "IL", "contactName": "Inwood", "address": "3000 W. Jefferson St."}}, {"pk": 40, "model": "core.rink", "fields": {"city": "Chicago", "contactPhone": "312-226-5555", "name": "Johnny's Icehouse", "zip": "60607", "contactEmail": "johnny@johnny.com", "state": "IL", "contactName": "Johnny", "address": "1350 W. Madison St."}}, {"pk": 41, "model": "core.rink", "fields": {"city": "Waukegan", "contactPhone": "847-336-7444", "name": "Lake County Sports Center", "zip": "60085", "contactEmail": "lake@lake.com", "state": "IL", "contactName": "Lake", "address": "351 Oakwood Ave."}}, {"pk": 42, "model": "core.rink", "fields": {"city": "West Dundee", "contactPhone": "847-844-8700", "name": "Leafs Ice Centre", "zip": "60118", "contactEmail": "leafs@leafs.com", "state": "IL", "contactName": "Leafs", "address": "801 Wesemann Dr."}}, {"pk": 43, "model": "core.rink", "fields": {"city": "Lake Forest", "contactPhone": "847-615-3261", "name": "MacKenzie Arena", "zip": "60045", "contactEmail": "mackenzie@mackenzie.com", "state": "IL", "contactName": "MacKenzie", "address": "1500 W. Kennedy Rd."}}, {"pk": 44, "model": "core.rink", "fields": {"city": "Chicago", "contactPhone": "312-742-5222", "name": "McCormick Tribune Ice Rink at ", "zip": "60601", "contactEmail": "mccormick@mccormick.com", "state": "IL", "contactName": "McCormick", "address": "55 N. Michigan Ave."}}, {"pk": 45, "model": "core.rink", "fields": {"city": "Chicago", "contactPhone": "773-478-2609", "name": "McFetridge Sports Complex", "zip": "60618", "contactEmail": "mcfetridge@mcfetridge.com", "state": "IL", "contactName": "McFetridge", "address": "3843 N. California Ave."}}, {"pk": 46, "model": "core.rink", "fields": {"city": "Chicago", "contactPhone": "312-747-5992", "name": "McKinley Park Rink", "zip": "60609", "contactEmail": "mckinley@mckinley.com", "state": "IL", "contactName": "McKinley", "address": "2210 W. Pershing Rd."}}, {"pk": 47, "model": "core.rink", "fields": {"city": "Chicago", "contactPhone": "312-747-0233", "name": "Midway Plaisance Ice Rink", "zip": "60637", "contactEmail": "midway@midway.com", "state": "IL", "contactName": "Midway", "address": "1130 E Midway Plaisance N"}}, {"pk": 48, "model": "core.rink", "fields": {"city": "Chicago", "contactPhone": "312-747-3690", "name": "Mt. Greenwood Park Rink", "zip": "60655", "contactEmail": "mt@mt.com", "state": "IL", "contactName": "Mt.", "address": "3721 W. 111th St."}}, {"pk": 49, "model": "core.rink", "fields": {"city": "Rolling Meadows", "contactPhone": "847-818-3210", "name": "Nelson Sports Complex", "zip": "60008", "contactEmail": "nelson@nelson.com", "state": "IL", "contactName": "Nelson", "address": "3900 Owl Dr."}}, {"pk": 50, "model": "core.rink", "fields": {"city": "Northbrook", "contactPhone": "847-480-1800", "name": "North Shore Ice Arena", "zip": "60062", "contactEmail": "north@north.com", "state": "IL", "contactName": "North", "address": "2111 Founders Dr."}}, {"pk": 51, "model": "core.rink", "fields": {"city": "Northbrook", "contactPhone": "847-291-2993", "name": "Northbrook Sports Center", "zip": "60062", "contactEmail": "northbrook@northbrook.com", "state": "IL", "contactName": "Northbrook", "address": "1730 Pfingsten Rd."}}, {"pk": 52, "model": "core.rink", "fields": {"city": "Oak Lawn", "contactPhone": "708-857-5173", "name": "Oak Lawn Ice Arena", "zip": "60453", "contactEmail": "oak@oak.com", "state": "IL", "contactName": "Oak", "address": "9320 S. Kenton Ave."}}, {"pk": 53, "model": "core.rink", "fields": {"city": "Kankakee", "contactPhone": "815-939-1946", "name": "Oak Orthopedic Sports Arena", "zip": "60901", "contactEmail": "oakortho@oakortho.com", "state": "IL", "contactName": "Oak Ortho", "address": "1601 River Rd."}}, {"pk": 54, "model": "core.rink", "fields": {"city": "Park Ridge", "contactPhone": "847-692-3359", "name": "Oakton Ice Arena", "zip": "60068", "contactEmail": "oakton@oakton.com", "state": "IL", "contactName": "Oakton", "address": "2800 W. Oakton St."}}, {"pk": 55, "model": "core.rink", "fields": {"city": "Peoria", "contactPhone": "309-686-3368", "name": "Owens Center", "zip": "61614", "contactEmail": "owens@owens.com", "state": "IL", "contactName": "Owens", "address": "1019 West Lake"}}, {"pk": 56, "model": "core.rink", "fields": {"city": "Pekin", "contactPhone": "309-346-1240", "name": "Pekin Memorial Arena", "zip": "61554", "contactEmail": "pekin@pekin.com", "state": "IL", "contactName": "Pekin", "address": "1701 Court St."}}, {"pk": 57, "model": "core.rink", "fields": {"city": "Bloomington", "contactPhone": "309-434-2737", "name": "Pepsi Ice Center", "zip": "61701", "contactEmail": "pepsi@pepsi.com", "state": "IL", "contactName": "Pepsi", "address": "201 S. Roosevelt Ave."}}, {"pk": 58, "model": "core.rink", "fields": {"city": "East Dundee", "contactPhone": "847-426-6753", "name": "Polar Dome Ice Arena", "zip": "60118", "contactEmail": "polar@polar.com", "state": "IL", "contactName": "Polar", "address": "Rt-25 & Rt-72 E"}}, {"pk": 59, "model": "core.rink", "fields": {"city": "Oak Park", "contactPhone": "708-848-9661", "name": "Ridgeland Common Ice Rink", "zip": "60302", "contactEmail": "ridgeland@ridgeland.com", "state": "IL", "contactName": "Ridgeland", "address": "415 W. Lake St."}}, {"pk": 60, "model": "core.rink", "fields": {"city": "Chicago", "contactPhone": "312-746-5735", "name": "Riis Park Rink", "zip": "60639", "contactEmail": "riis@riis.com", "state": "IL", "contactName": "Riis", "address": "6100 W. Fullerton Ave."}}, {"pk": 61, "model": "core.rink", "fields": {"city": "Gurnee", "contactPhone": "847-856-1064", "name": "Rink Side Sports", "zip": "60031", "contactEmail": "rink@rink.com", "state": "IL", "contactName": "Rink", "address": "6152 W. Grand Ave."}}, {"pk": 62, "model": "core.rink", "fields": {"city": "Rockford", "contactPhone": "815-963-7408", "name": "Riverview Ice House", "zip": "61107", "contactEmail": "riverview@riverview.com", "state": "IL", "contactName": "Riverview", "address": "324 N. Madison St."}}, {"pk": 63, "model": "core.rink", "fields": {"city": "Evanston", "contactPhone": "847-448-8258", "name": "Robert Crown Ice Arena", "zip": "60202", "contactEmail": "robert@robert.com", "state": "IL", "contactName": "Robert", "address": "1701 Main St."}}, {"pk": 64, "model": "core.rink", "fields": {"city": "Bolingbrook", "contactPhone": "630-679-1700", "name": "Rocket Ice Arena", "zip": "60440", "contactEmail": "rocket@rocket.com", "state": "IL", "contactName": "Rocket", "address": "180 Canterbury Lane"}}, {"pk": 65, "model": "core.rink", "fields": {"city": "Rockford", "contactPhone": "815-968-5600", "name": "Rockford Metro Centre", "zip": "61101", "contactEmail": "rockford@rockford.com", "state": "IL", "contactName": "Rockford", "address": "300 Elm St."}}, {"pk": 66, "model": "core.rink", "fields": {"city": "Chicago", "contactPhone": "773-646-1967", "name": "Rowan Park Rink", "zip": "60617", "contactEmail": "rowan@rowan.com", "state": "IL", "contactName": "Rowan", "address": "11546 S. Avenue L"}}, {"pk": 67, "model": "core.rink", "fields": {"city": "Chicago", "contactPhone": "773-275-6600", "name": "Saddle & Cycle Club", "zip": "60640", "contactEmail": "saddle@saddle.com", "state": "IL", "contactName": "Saddle", "address": "900 W. Foster Ave"}}, {"pk": 68, "model": "core.rink", "fields": {"city": "Hoffman Estates", "contactPhone": "847-649-2222", "name": "Sears Centre Arena", "zip": "60195", "contactEmail": "sears@sears.com", "state": "IL", "contactName": "Sears", "address": "5333 Prarie Stone Pkwy."}}, {"pk": 69, "model": "core.rink", "fields": {"city": "Woodridge", "contactPhone": "630-271-4400", "name": "Seven Bridges Ice Arena", "zip": "60517", "contactEmail": "seven@seven.com", "state": "IL", "contactName": "Seven", "address": "6690 South Rt-53"}}, {"pk": 70, "model": "core.rink", "fields": {"city": "Mattoon", "contactPhone": "217-234-6667", "name": "Silver Star Skate Center", "zip": "61938", "contactEmail": "silver@silver.com", "state": "IL", "contactName": "Silver", "address": "North Rt-45"}}, {"pk": 71, "model": "core.rink", "fields": {"city": "Rockford", "contactPhone": "815-874-6500", "name": "Skateland", "zip": "61109", "contactEmail": "skateland@skateland.com", "state": "IL", "contactName": "Skateland", "address": "4843 Stenstrom Rd."}}, {"pk": 72, "model": "core.rink", "fields": {"city": "Skokie", "contactPhone": "847-674-1500 ex", "name": "Skatium Ice Arena", "zip": "60077", "contactEmail": "skatium@skatium.com", "state": "IL", "contactName": "Skatium", "address": "9300 Weber Park Place"}}, {"pk": 73, "model": "core.rink", "fields": {"city": "Crestwood", "contactPhone": "708-371-1344", "name": "Southwest Ice Arena", "zip": "60445", "contactEmail": "southwest@southwest.com", "state": "IL", "contactName": "Southwest", "address": "5505 W. 127th St."}}, {"pk": 74, "model": "core.rink", "fields": {"city": "St. Charles", "contactPhone": "630-762-8100", "name": "St. Charles Sportsplex", "zip": "60174", "contactEmail": "st@st.com", "state": "IL", "contactName": "St.", "address": "1400 Foundry St."}}, {"pk": 75, "model": "core.rink", "fields": {"city": "Bensenville", "contactPhone": "630-594-1103", "name": "The Edge Ice Arena", "zip": "60106", "contactEmail": "the@the.com", "state": "IL", "contactName": "The", "address": "545 John St."}}, {"pk": 76, "model": "core.rink", "fields": {"city": "Buffalo Grove", "contactPhone": "847-821-7465", "name": "Twin Rinks Ice Pavilion", "zip": "60089", "contactEmail": "twin@twin.com", "state": "IL", "contactName": "Twin", "address": "1500 Abbot Ct."}}, {"pk": 77, "model": "core.rink", "fields": {"city": "Bloomington", "contactPhone": "309-434-2843", "name": "U.S. Cellular Coliseum", "zip": "61701", "contactEmail": "us@us.com", "state": "IL", "contactName": "U.S.", "address": "101 S. Madison St. & Front St."}}, {"pk": 78, "model": "core.rink", "fields": {"city": "Fairview Heights", "contactPhone": "618-398-4600", "name": "U.S. Ice Sports Complex", "zip": "62208", "contactEmail": "usice@usice.com", "state": "IL", "contactName": "U.S. Ice", "address": "125 S. Ruby Lane"}}, {"pk": 79, "model": "core.rink", "fields": {"city": "Chicago", "contactPhone": "312-455-4500", "name": "United Center", "zip": "60612", "contactEmail": "united@united.com", "state": "IL", "contactName": "United", "address": "1901 W. Madison St."}}, {"pk": 80, "model": "core.rink", "fields": {"city": "Chicago", "contactPhone": "773-761-8663", "name": "Warren Park Ice Rink", "zip": "60645", "contactEmail": "warren@warren.com", "state": "IL", "contactName": "Warren", "address": "6601 N. Western Ave."}}, {"pk": 81, "model": "core.rink", "fields": {"city": "Glencoe", "contactPhone": "847-835-7544", "name": "Watts Ice Center", "zip": "60022", "contactEmail": "watts@watts.com", "state": "IL", "contactName": "Watts", "address": "305 Randolph St."}}, {"pk": 82, "model": "core.rink", "fields": {"city": "Chicago", "contactPhone": "773-284-6078", "name": "West Lawn Park Rink", "zip": "60629", "contactEmail": "west@west.com", "state": "IL", "contactName": "West", "address": "4233 W. 65th St."}}, {"pk": 83, "model": "core.rink", "fields": {"city": "Rolling Meadows", "contactPhone": "847-398-2700", "name": "West Meadows Ice Arena", "zip": "60008", "contactEmail": "westmeadows@westmeadows.com", "state": "IL", "contactName": "West Meadows", "address": "3939 Winnetka Ave."}}, {"pk": 84, "model": "core.rink", "fields": {"city": "Lake Forest", "contactPhone": "847-234-6702", "name": "West Park Rink", "zip": "60045", "contactEmail": "westpark@westpark.com", "state": "IL", "contactName": "West Park", "address": "Summit Ave. & Sunset Pl."}}, {"pk": 85, "model": "core.rink", "fields": {"city": "Winnetka", "contactPhone": "847-501-2060", "name": "Winnetka Ice Arena", "zip": "60093", "contactEmail": "winnetka@winnetka.com", "state": "IL", "contactName": "Winnetka", "address": "490 Hibbard Rd."}}, {"pk": 86, "model": "core.rink", "fields": {"city": "Lake Forest", "contactPhone": "847-234-0030", "name": "Winter Club", "zip": "60045", "contactEmail": "winter@winter.com", "state": "IL", "contactName": "Winter", "address": "956 N. Sheridan Rd."}}, {"pk": 87, "model": "core.rink", "fields": {"city": "Crystal Lake", "contactPhone": "815-356-8705", "name": "Xtreme Wheels Inline Skating R", "zip": "60014", "contactEmail": "xtreme@xtreme.com", "state": "IL", "contactName": "Xtreme", "address": "691 Virginia Rd."}}, {"pk": 1, "model": "core.eventstatus", "fields": {"name": "Available"}}, {"pk": 2, "model": "core.eventstatus", "fields": {"name": "Scheduled"}}, {"pk": 3, "model": "core.eventstatus", "fields": {"name": "Confirmed"}}, {"pk": 4, "model": "core.eventstatus", "fields": {"name": "Completed"}}, {"pk": 1, "model": "core.club", "fields": {"city": "Highland Park", "name": "Falcons Hockey Club", "zip": "60035", "contactEmail": "president@falconshockey.org", "state": "IL", "contactName": "Guy Considine", "address": "3100 Trailway Dr."}}, {"pk": 2, "model": "core.club", "fields": {"city": "Bensenville", "name": "Chicago Blues Hockey", "zip": "60106", "contactEmail": "salamone@chicagoblueshockey.org", "state": "IL", "contactName": "Joe Salamone", "address": "735 E. Jefferson St."}}, {"pk": 3, "model": "core.club", "fields": {"city": "Bolingbrook", "name": "Sabres Hockey", "zip": "60490", "contactEmail": "jclare@sabrehockey.com", "state": "IL", "contactName": "Jim Clare", "address": "749 Metropolitan Ave."}}, {"pk": 4, "model": "core.club", "fields": {"city": "Romeoville", "name": "Huskies", "zip": "60446", "contactEmail": "bgraham@huskieshockeyclub.com", "state": "IL", "contactName": "Bob Graham", "address": "1581 W. Normantown Rd."}}, {"pk": 5, "model": "core.club", "fields": {"city": "Glenview", "name": "Glenview Stars Hockey", "zip": "60025", "contactEmail": "dsdm1236@sbcglobal.net", "state": "IL", "contactName": "Stephie Arkus", "address": "1851 Landwehr Rd."}}, {"pk": 6, "model": "core.club", "fields": {"city": "Wilmette", "name": "Wilmette Hockey", "zip": "60091", "contactEmail": "jjgrifman@comcast.net", "state": "IL", "contactName": "Jim Griffin", "address": "P.O. Box 477"}}, {"pk": 7, "model": "core.club", "fields": {"city": "Chicago", "name": "Express Hockey", "zip": "60631", "contactEmail": "Gasman127@aol.com", "state": "IL", "contactName": "Jimmy Wright", "address": "6757 N. Odell"}}, {"pk": 8, "model": "core.club", "fields": {"city": "Winnetka", "name": "Winnetka", "zip": "60093", "contactEmail": "erl@willmont.com", "state": "IL", "contactName": "Eric Lifvendahl", "address": "490 Hibbard Rd"}}, {"pk": 9, "model": "core.club", "fields": {"city": "Vernon Hills", "name": "Ice Dogs Hockey", "zip": "60061", "contactEmail": "Shellist@comcast.net", "state": "IL", "contactName": "Marc Shellist", "address": "PO Box 5043"}}, {"pk": 10, "model": "core.club", "fields": {"city": "Orland Park", "name": "Vikings", "zip": "60467", "contactEmail": "robert.apter@ubs.com", "state": "IL", "contactName": "Bob Apter", "address": "10700 W. 160th Street"}}, {"pk": 11, "model": "core.club", "fields": {"city": "Chicago", "name": "Chicago Jets Hockey Club", "zip": "60610", "contactEmail": "barberkatie@yahoo.com", "state": "IL", "contactName": "Katie Barber", "address": "1520 N. Dearborn"}}, {"pk": 12, "model": "core.club", "fields": {"city": "Palatine", "name": "Chargers", "zip": "60074", "contactEmail": "jimz100@comcast.net", "state": "IL", "contactName": "Jim Zeman", "address": "1936 Capri Drive"}}, {"pk": 13, "model": "core.club", "fields": {"city": "Barrington", "name": "Redwings Hockey Organization", "zip": "60011", "contactEmail": "rjohnson@isk-industries.com", "state": "IL", "contactName": "Robert Johnson", "address": "P.O. Box 393"}}, {"pk": 14, "model": "core.club", "fields": {"city": "West Dundee", "name": "Leafs Hockey Club", "zip": "60118", "contactEmail": "president@leafshockeyclub.net", "state": "IL", "contactName": "Danielle Gulli", "address": "801 Wesemann Dr"}}, {"pk": 15, "model": "core.club", "fields": {"city": "Crystal Lake", "name": "Yellow Jackets", "zip": "60014", "contactEmail": "keith.vandamme@firewagonhockey.com", "state": "IL", "contactName": "Keith Van Damme", "address": "5820 Wild Plum Road"}}, {"pk": 16, "model": "core.club", "fields": {"city": "South Elgin", "name": "Cyclones", "zip": "60177", "contactEmail": "tommcgee29@gmail.com", "state": "IL", "contactName": "Tom McGee", "address": "627 Waterside Drive"}}, {"pk": 17, "model": "core.club", "fields": {"city": "Darien", "name": "Chicago Hawks Hockey Club", "zip": "60561", "contactEmail": "joem@maxib.com", "state": "IL", "contactName": "Joe Messina", "address": "451 Plainfield Rd."}}, {"pk": 18, "model": "core.club", "fields": {"city": "Northbrook", "name": "Northbrook Bluehawks", "zip": "60062", "contactEmail": "pday100@comcast.net", "state": "IL", "contactName": "Pete Day", "address": "1730 Pfingsten Road"}}, {"pk": 19, "model": "core.club", "fields": {"city": "Lombard", "name": "Chicago Bruins", "zip": "60101", "contactEmail": "president@chicagobruinshockey.com", "state": "IL", "contactName": "Mike Determann", "address": "475 South Grace Street"}}, {"pk": 20, "model": "core.club", "fields": {"city": "South Bend", "name": "Irish Youth Hockey League", "zip": "46619", "contactEmail": "chrisk@compassadgroup.com", "state": "IN", "contactName": "Chris Kleva", "address": "1421 S. Walnet Street"}}, {"pk": 21, "model": "core.club", "fields": {"city": "Crestwood", "name": "St. Jude Knights", "zip": "60445", "contactEmail": "dpgulley@comcast.net", "state": "IL", "contactName": "Dave Gulley", "address": "5505 West 127th Street"}}, {"pk": 22, "model": "core.club", "fields": {"city": "Glen Ellyn", "name": "Admirals", "zip": "60137", "contactEmail": "msangiacomo@admiralshockeyclub.com", "state": "IL", "contactName": "Mickey Sangiacomo", "address": "1N450 Highland Ave."}}, {"pk": 23, "model": "core.club", "fields": {"city": "Skokie", "name": "Skokie Flyers Hockey Club", "zip": "60077", "contactEmail": "joan.fujii@flyershockey.com", "state": "IL", "contactName": "Joan Fuji", "address": "9300 Weber Park Place"}}, {"pk": 24, "model": "core.club", "fields": {"city": "Peoria", "name": "Peoria Youth Hockey", "zip": "61615", "contactEmail": "dcassidy@cassidymueller.com", "state": "IL", "contactName": "Drew Cassidy", "address": "2213 W. Riviera Drive"}}, {"pk": 25, "model": "core.club", "fields": {"city": "Evanston", "name": "Evanston Wildkits", "zip": "60202", "contactEmail": "skirkpatrick63@gmail.com", "state": "IL", "contactName": "Scott Kirkpatrick", "address": "1701 Main Street"}}, {"pk": 26, "model": "core.club", "fields": {"city": "Pekin", "name": "Pekin Dragons", "zip": "61554", "contactEmail": "hartleyc@KCI1.com", "state": "IL", "contactName": "Chad Hartley", "address": "1701 Court St."}}, {"pk": 27, "model": "core.club", "fields": {"city": "Lincolnwood", "name": "Chicago Young Americans", "zip": "60712", "contactEmail": "Louis@allmasonry.com", "state": "IL", "contactName": "Louis Puig", "address": "7384 Lincoln Ave."}}, {"pk": 28, "model": "core.club", "fields": {"city": "Woodridge", "name": "Chicago Mission ", "zip": "60517", "contactEmail": "danandandreahahn@aol.com", "state": "IL", "contactName": "Andrea Hahn", "address": "6690 South Rt. 53"}}, {"pk": 29, "model": "core.club", "fields": {"city": "Rockford", "name": "Rockford Hockey Club", "zip": "61107", "contactEmail": "president@rockfordhockeyclub.com", "state": "IL", "contactName": "Jerry Colarossi", "address": "111 N. Madison St"}}, {"pk": 30, "model": "core.club", "fields": {"city": "Dyer", "name": "Midwest Maniax", "zip": "46311", "contactEmail": "midwestice06@yahoo.com", "state": "IN", "contactName": "Brent Giffin", "address": "10600 White Oak Ave."}}, {"pk": 31, "model": "core.club", "fields": {"city": "", "name": "Jaguar Hockey Club", "zip": "", "contactEmail": "bspreeman18@hotmail.com", "state": "", "contactName": "Brian Spreeman", "address": ""}}, {"pk": 1, "model": "core.division", "fields": {"contactEmail": "", "name": "Mite", "contactName": ""}}, {"pk": 2, "model": "core.division", "fields": {"contactEmail": "", "name": "Squirts", "contactName": ""}}, {"pk": 3, "model": "core.division", "fields": {"contactEmail": "", "name": "Peewees", "contactName": ""}}, {"pk": 4, "model": "core.division", "fields": {"contactEmail": "", "name": "Bantams", "contactName": ""}}, {"pk": 1, "model": "core.penaltyoffense", "fields": {"name": "Hooking"}}, {"pk": 2, "model": "core.penaltyoffense", "fields": {"name": "Cross-Checking"}}, {"pk": 3, "model": "core.penaltyoffense", "fields": {"name": "Holding"}}, {"pk": 4, "model": "core.penaltyoffense", "fields": {"name": "Slashing"}}, {"pk": 5, "model": "core.penaltyoffense", "fields": {"name": "Tripping"}}, {"pk": 1, "model": "core.season", "fields": {"seasonStatus": 1, "seasonSchedDeadline": "2009-11-01", "seedingStatDeadline": "2009-10-01", "seasonStatDeadline": "2010-01-01", "year": "2009", "seedingBeginDate": "2009-08-01", "seasonBeginDate": "2009-10-02", "seedingSchedDeadline": "2009-09-01", "seasonEnd": "2010-01-02", "isCurrentSeason": true}}, {"pk": 1, "model": "core.team", "fields": {"coachEmail": "tommiller@falconshockey.org", "division": 1, "name": "Falcons #1", "club": 1, "season": 1, "skillLevel": 6, "managerEmail": "rkremkow22@yahoo.com", "coachName": "Tom Miller", "managerName": "Robb Kremkow"}}, {"pk": 2, "model": "core.team", "fields": {"coachEmail": "robert.black@aonbenfield.com", "division": 1, "name": "Blues #1", "club": 2, "season": 1, "skillLevel": 6, "managerEmail": "hpgreenwood@yahoo.com", "coachName": "Bob Black", "managerName": "Hal Greenwood"}}, {"pk": 3, "model": "core.team", "fields": {"coachEmail": "s@s.com", "division": 1, "name": "Sabres #1", "club": 3, "season": 1, "skillLevel": 6, "managerEmail": "s@s.com", "coachName": "S", "managerName": "S"}}, {"pk": 4, "model": "core.team", "fields": {"coachEmail": "h@h.com", "division": 1, "name": "Huskies #1", "club": 4, "season": 1, "skillLevel": 6, "managerEmail": "h@h.com", "coachName": "h", "managerName": "h"}}, {"pk": 5, "model": "core.team", "fields": {"coachEmail": "g@g.com", "division": 1, "name": "Glenview #1", "club": 5, "season": 1, "skillLevel": 6, "managerEmail": "g@g.com", "coachName": "g", "managerName": "g"}}, {"pk": 6, "model": "core.team", "fields": {"coachEmail": "w@w.com", "division": 1, "name": "Wilmette #1", "club": 6, "season": 1, "skillLevel": 6, "managerEmail": "w@w.com", "coachName": "w", "managerName": "w"}}, {"pk": 7, "model": "core.team", "fields": {"coachEmail": "i@i.com", "division": 1, "name": "Ice Dogs #1", "club": 9, "season": 1, "skillLevel": 6, "managerEmail": "i@i.com", "coachName": "i", "managerName": "i"}}, {"pk": 8, "model": "core.team", "fields": {"coachEmail": "e@e.com", "division": 1, "name": "Express #1", "club": 7, "season": 1, "skillLevel": 6, "managerEmail": "e@e.com", "coachName": "e", "managerName": "e"}}, {"pk": 9, "model": "core.team", "fields": {"coachEmail": "w@w.com", "division": 1, "name": "Winnetka #1", "club": 8, "season": 1, "skillLevel": 6, "managerEmail": "w@w.com", "coachName": "w", "managerName": "w"}}, {"pk": 10, "model": "core.team", "fields": {"coachEmail": "v@v.com", "division": 1, "name": "Vikings #1", "club": 10, "season": 1, "skillLevel": 5, "managerEmail": "v@v.com", "coachName": "v", "managerName": "v"}}, {"pk": 11, "model": "core.team", "fields": {"coachEmail": "c@c.com", "division": 1, "name": "Chargers #1", "club": 12, "season": 1, "skillLevel": 5, "managerEmail": "c@c.com", "coachName": "c", "managerName": "c"}}, {"pk": 12, "model": "core.team", "fields": {"coachEmail": "j@j.com", "division": 1, "name": "Jets #1", "club": 11, "season": 1, "skillLevel": 5, "managerEmail": "j@j.com", "coachName": "j", "managerName": "j"}}, {"pk": 13, "model": "core.team", "fields": {"coachEmail": "r@r.com", "division": 1, "name": "Redwings #1", "club": 13, "season": 1, "skillLevel": 5, "managerEmail": "r@r.com", "coachName": "r", "managerName": "r"}}, {"pk": 14, "model": "core.team", "fields": {"coachEmail": "l@l.com", "division": 1, "name": "Leafs #1", "club": 14, "season": 1, "skillLevel": 5, "managerEmail": "l@l.com", "coachName": "l", "managerName": "l"}}, {"pk": 15, "model": "core.team", "fields": {"coachEmail": "y@y.com", "division": 1, "name": "Yellow Jackets #1", "club": 15, "season": 1, "skillLevel": 5, "managerEmail": "y@y.com", "coachName": "y", "managerName": "y"}}, {"pk": 16, "model": "core.team", "fields": {"coachEmail": "c@c.com", "division": 1, "name": "Cyclones #1", "club": 16, "season": 1, "skillLevel": 5, "managerEmail": "c@c.com", "coachName": "c", "managerName": "c"}}, {"pk": 17, "model": "core.team", "fields": {"coachEmail": "tracyhmura@comcast.net", "division": 1, "name": "Hawks #1", "club": 17, "season": 1, "skillLevel": 5, "managerEmail": "kdkozminski@comcast.net", "coachName": "Jeff Hmura", "managerName": "Deanne Kozminski"}}, {"pk": 18, "model": "core.team", "fields": {"coachEmail": "n@n.com", "division": 1, "name": "Northbrook #1", "club": 18, "season": 1, "skillLevel": 5, "managerEmail": "n@n.com", "coachName": "n", "managerName": "n"}}, {"pk": 19, "model": "core.team", "fields": {"coachEmail": "b@b.com", "division": 1, "name": "Bruins #1", "club": 19, "season": 1, "skillLevel": 2, "managerEmail": "b@b.com", "coachName": "b", "managerName": "b"}}, {"pk": 20, "model": "core.team", "fields": {"coachEmail": "j@j.com", "division": 1, "name": "Jaguars #1", "club": 20, "season": 1, "skillLevel": 2, "managerEmail": "j@j.com", "coachName": "j", "managerName": "j"}}, {"pk": 21, "model": "core.team", "fields": {"coachEmail": "s@s.com", "division": 1, "name": "St. Jude #1", "club": 21, "season": 1, "skillLevel": 2, "managerEmail": "s@s.com", "coachName": "s", "managerName": "s"}}, {"pk": 22, "model": "core.team", "fields": {"coachEmail": "h@h.com", "division": 1, "name": "Huskies #2", "club": 4, "season": 1, "skillLevel": 2, "managerEmail": "h@h.com", "coachName": "h", "managerName": "h"}}, {"pk": 23, "model": "core.team", "fields": {"coachEmail": "w@w.com", "division": 1, "name": "Winnetka #2", "club": 8, "season": 1, "skillLevel": 2, "managerEmail": "w@w.com", "coachName": "w", "managerName": "w"}}, {"pk": 24, "model": "core.team", "fields": {"coachEmail": "a@a.com", "division": 1, "name": "Admirals #1", "club": 22, "season": 1, "skillLevel": 2, "managerEmail": "a@a.com", "coachName": "a", "managerName": "a"}}, {"pk": 25, "model": "core.team", "fields": {"coachEmail": "v@v.com", "division": 1, "name": "Vikings #2", "club": 10, "season": 1, "skillLevel": 2, "managerEmail": "v@v.com", "coachName": "v", "managerName": "v"}}, {"pk": 26, "model": "core.team", "fields": {"coachEmail": "s@s.com", "division": 1, "name": "Skokie #1", "club": 23, "season": 1, "skillLevel": 2, "managerEmail": "s@s.com", "coachName": "s", "managerName": "s"}}, {"pk": 27, "model": "core.team", "fields": {"coachEmail": "i@i.com", "division": 1, "name": "Ice Dogs #2", "club": 9, "season": 1, "skillLevel": 2, "managerEmail": "i@i.com", "coachName": "i", "managerName": "i"}}, {"pk": 28, "model": "core.team", "fields": {"coachEmail": "h@h.com", "division": 1, "name": "Huskies #3", "club": 4, "season": 1, "skillLevel": 3, "managerEmail": "h@h.com", "coachName": "h", "managerName": "h"}}, {"pk": 29, "model": "core.team", "fields": {"coachEmail": "p@p.com", "division": 1, "name": "Peoria #1", "club": 24, "season": 1, "skillLevel": 3, "managerEmail": "p@p.com", "coachName": "p", "managerName": "p"}}, {"pk": 30, "model": "core.team", "fields": {"coachEmail": "l@l.com", "division": 1, "name": "Leafs #2", "club": 14, "season": 1, "skillLevel": 3, "managerEmail": "l@l.com", "coachName": "l", "managerName": "l"}}, {"pk": 31, "model": "core.team", "fields": {"coachEmail": "w@w.com", "division": 1, "name": "Wilmette #2", "club": 6, "season": 1, "skillLevel": 3, "managerEmail": "w@w.com", "coachName": "w", "managerName": "w"}}, {"pk": 32, "model": "core.team", "fields": {"coachEmail": "s@s.com", "division": 1, "name": "Sabres #2", "club": 3, "season": 1, "skillLevel": 3, "managerEmail": "s@s.com", "coachName": "s", "managerName": "s"}}, {"pk": 33, "model": "core.team", "fields": {"coachEmail": "efrenheredia@yahoo.com", "division": 1, "name": "Falcons #2", "club": 1, "season": 1, "skillLevel": 3, "managerEmail": "dshachtman@bcapltd.com", "coachName": "Efren Heredia", "managerName": "Dan Shachtman"}}, {"pk": 34, "model": "core.team", "fields": {"coachEmail": "geilsr@net.elmhurst.edu", "division": 1, "name": "Blues #2", "club": 2, "season": 1, "skillLevel": 3, "managerEmail": "robert.colantonio@cushwake.com", "coachName": "Ryan Geils", "managerName": "Rob colantonio"}}, {"pk": 35, "model": "core.team", "fields": {"coachEmail": "w@w.com", "division": 1, "name": "Wildkits #1", "club": 25, "season": 1, "skillLevel": 3, "managerEmail": "w@w.com", "coachName": "w", "managerName": "w"}}, {"pk": 36, "model": "core.team", "fields": {"coachEmail": "h@h.com", "division": 1, "name": "Hawks #2", "club": 17, "season": 1, "skillLevel": 3, "managerEmail": "h@h.com", "coachName": "h", "managerName": "h"}}, {"pk": 37, "model": "core.team", "fields": {"coachEmail": "b@b.com", "division": 1, "name": "Bruins #2", "club": 19, "season": 1, "skillLevel": 3, "managerEmail": "b@b.com", "coachName": "b", "managerName": "b"}}, {"pk": 38, "model": "core.team", "fields": {"coachEmail": "w@w.com", "division": 1, "name": "Wilmette #3", "club": 6, "season": 1, "skillLevel": 3, "managerEmail": "w@w.com", "coachName": "w", "managerName": "w"}}, {"pk": 39, "model": "core.team", "fields": {"coachEmail": "g@g.com", "division": 1, "name": "Glenview #2", "club": 5, "season": 1, "skillLevel": 3, "managerEmail": "g@g.com", "coachName": "g", "managerName": "g"}}, {"pk": 40, "model": "core.team", "fields": {"coachEmail": "p@p.com", "division": 1, "name": "Pekin", "club": 26, "season": 1, "skillLevel": 1, "managerEmail": "p@p.com", "coachName": "p", "managerName": "p"}}, {"pk": 41, "model": "core.team", "fields": {"coachEmail": "s@s.com", "division": 1, "name": "Sabres #3", "club": 3, "season": 1, "skillLevel": 1, "managerEmail": "s@s.com", "coachName": "s", "managerName": "s"}}, {"pk": 42, "model": "core.team", "fields": {"coachEmail": "w@w.com", "division": 1, "name": "Winnetka #4", "club": 8, "season": 1, "skillLevel": 1, "managerEmail": "w@w.com", "coachName": "w", "managerName": "w"}}, {"pk": 43, "model": "core.team", "fields": {"coachEmail": "l@l.com", "division": 1, "name": "Leafs #4", "club": 14, "season": 1, "skillLevel": 1, "managerEmail": "l@l.com", "coachName": "l", "managerName": "l"}}, {"pk": 44, "model": "core.team", "fields": {"coachEmail": "w@w.com", "division": 1, "name": "Winnetka #3", "club": 8, "season": 1, "skillLevel": 1, "managerEmail": "w@w.com", "coachName": "w", "managerName": "w"}}, {"pk": 45, "model": "core.team", "fields": {"coachEmail": "l@l.com", "division": 1, "name": "Leafs #3", "club": 14, "season": 1, "skillLevel": 1, "managerEmail": "l@l.com", "coachName": "l", "managerName": "l"}}, {"pk": 46, "model": "core.team", "fields": {"coachEmail": "c@c.com", "division": 1, "name": "Cyclones #2", "club": 16, "season": 1, "skillLevel": 1, "managerEmail": "c@c.com", "coachName": "c", "managerName": "c"}}, {"pk": 47, "model": "core.team", "fields": {"coachEmail": "n@n.com", "division": 1, "name": "Northbrook #2", "club": 18, "season": 1, "skillLevel": 1, "managerEmail": "n@n.com", "coachName": "n", "managerName": "n"}}, {"pk": 48, "model": "core.team", "fields": {"coachEmail": "j@j.com", "division": 1, "name": "Jets #2", "club": 11, "season": 1, "skillLevel": 1, "managerEmail": "j@j.com", "coachName": "j", "managerName": "j"}}, {"pk": 49, "model": "core.team", "fields": {"coachEmail": "a@a.com", "division": 1, "name": "Admirals #2", "club": 22, "season": 1, "skillLevel": 1, "managerEmail": "a@a.com", "coachName": "a", "managerName": "a"}}, {"pk": 50, "model": "core.team", "fields": {"coachEmail": "w@w.com", "division": 1, "name": "Wilmette #4", "club": 6, "season": 1, "skillLevel": 7, "managerEmail": "w@w.com", "coachName": "w", "managerName": "w"}}, {"pk": 51, "model": "core.team", "fields": {"coachEmail": "v@v.com", "division": 1, "name": "Vikings #3", "club": 10, "season": 1, "skillLevel": 7, "managerEmail": "v@v.com", "coachName": "v", "managerName": "v"}}, {"pk": 52, "model": "core.team", "fields": {"coachEmail": "g@g.com", "division": 1, "name": "Glenview #3", "club": 5, "season": 1, "skillLevel": 7, "managerEmail": "g@g.com", "coachName": "g", "managerName": "g"}}, {"pk": 53, "model": "core.team", "fields": {"coachEmail": "geilsr@net.elmhurst.edu", "division": 1, "name": "Blues #3", "club": 2, "season": 1, "skillLevel": 7, "managerEmail": "smarie820@aol.com", "coachName": "Ryan Geils", "managerName": "Sue Kriz"}}, {"pk": 54, "model": "core.team", "fields": {"coachEmail": "r@r.com", "division": 1, "name": "Redwings #2", "club": 13, "season": 1, "skillLevel": 7, "managerEmail": "r@r.com", "coachName": "r", "managerName": "r"}}, {"pk": 55, "model": "core.team", "fields": {"coachEmail": "e@e.com", "division": 1, "name": "Express #2", "club": 7, "season": 1, "skillLevel": 7, "managerEmail": "e@e.com", "coachName": "e", "managerName": "e"}}, {"pk": 56, "model": "core.team", "fields": {"coachEmail": "c@c.com", "division": 1, "name": "Chargers #2", "club": 12, "season": 1, "skillLevel": 7, "managerEmail": "c@c.com", "coachName": "c", "managerName": "c"}}, {"pk": 57, "model": "core.team", "fields": {"coachEmail": "y@y.com", "division": 1, "name": "Yellow Jackets #2", "club": 15, "season": 1, "skillLevel": 7, "managerEmail": "y@y.com", "coachName": "y", "managerName": "y"}}, {"pk": 58, "model": "core.team", "fields": {"coachEmail": "coachwally@falconshockey.org", "division": 1, "name": "Falcons #3", "club": 1, "season": 1, "skillLevel": 7, "managerEmail": "mbock@harmer.com", "coachName": "Wally Kormylo", "managerName": "Matt Bock"}}, {"pk": 59, "model": "core.team", "fields": {"coachEmail": "h@h.com", "division": 1, "name": "Hawks #3", "club": 17, "season": 1, "skillLevel": 7, "managerEmail": "h@h.com", "coachName": "h", "managerName": "h"}}, {"pk": 60, "model": "core.team", "fields": {"coachEmail": "h@h.com", "division": 1, "name": "Huskies #4", "club": 4, "season": 1, "skillLevel": 7, "managerEmail": "h@h.com", "coachName": "h", "managerName": "h"}}, {"pk": 61, "model": "core.team", "fields": {"coachEmail": "s@s.com", "division": 1, "name": "St. Jude #2", "club": 21, "season": 1, "skillLevel": 7, "managerEmail": "s@s.com", "coachName": "S", "managerName": "s"}}, {"pk": 62, "model": "core.team", "fields": {"coachEmail": "puckin24@aol.com", "division": 3, "name": "Glenview #1 ", "club": 5, "season": 1, "skillLevel": 6, "managerEmail": "jayme.bielanski@kraft.com", "coachName": "Jim Philbin", "managerName": "Jayme Bielanski"}}, {"pk": 63, "model": "core.team", "fields": {"coachEmail": "Puckman815@aol.com", "division": 3, "name": "Yellow Jackets #1 ", "club": 15, "season": 1, "skillLevel": 6, "managerEmail": "piercepnd@comcast.net", "coachName": "Steve Maloney", "managerName": "Pam Pierce"}}, {"pk": 64, "model": "core.team", "fields": {"coachEmail": "burf17@charter.net", "division": 3, "name": "Rockford #1", "club": 29, "season": 1, "skillLevel": 6, "managerEmail": "jsymps@woodward.com", "coachName": "Scott Burfoot", "managerName": "Jeff Sympson"}}, {"pk": 65, "model": "core.team", "fields": {"coachEmail": "msavage@4winds.com", "division": 3, "name": "Irish #1", "club": 20, "season": 1, "skillLevel": 6, "managerEmail": "scottcripe@maitlandengineering.com", "coachName": "Mike Savage", "managerName": "Scott Cripe"}}, {"pk": 66, "model": "core.team", "fields": {"coachEmail": "stanleyluberda@att.net", "division": 3, "name": "Blues #1", "club": 2, "season": 1, "skillLevel": 6, "managerEmail": "abbatacola@sbcglobal.net", "coachName": "Stan Luberda", "managerName": "Mike Abbatacola"}}, {"pk": 67, "model": "core.team", "fields": {"coachEmail": "ipgpromo@aol.com", "division": 3, "name": "Cyclones #1", "club": 16, "season": 1, "skillLevel": 6, "managerEmail": "teoboyle@gmail.com", "coachName": "Nick Keefe", "managerName": "Tom O\u2019Boyle"}}, {"pk": 68, "model": "core.team", "fields": {"coachEmail": "bobbyscotthockey@comcast.net", "division": 3, "name": "Ice Dogs #1", "club": 9, "season": 1, "skillLevel": 6, "managerEmail": "ThomasZentz@sbcglobal.net", "coachName": "Bob Scott", "managerName": "Tom Zentz"}}, {"pk": 69, "model": "core.team", "fields": {"coachEmail": "evan.poulakidas@ccvi-us.com", "division": 3, "name": "Northbrook #1", "club": 18, "season": 1, "skillLevel": 6, "managerEmail": "crane.michelle@comcast.net", "coachName": "Evan Poulakidis", "managerName": "Michele Crane"}}, {"pk": 70, "model": "core.team", "fields": {"coachEmail": "jean-claude13@comcast.net", "division": 3, "name": "Falcons #1", "club": 1, "season": 1, "skillLevel": 6, "managerEmail": "jbcollopy2@aol.com", "coachName": "Claude Desgagne", "managerName": "Jim Collopy"}}, {"pk": 71, "model": "core.team", "fields": {"coachEmail": "sfsomerfield@aol.com", "division": 3, "name": "Vikings #1", "club": 10, "season": 1, "skillLevel": 5, "managerEmail": "Loizzo68@comcast.net", "coachName": "Steve Sommerfield", "managerName": "Karen Loizzo"}}, {"pk": 72, "model": "core.team", "fields": {"coachEmail": "run262man@gmail.com", "division": 3, "name": "Wildkits #1 ", "club": 25, "season": 1, "skillLevel": 5, "managerEmail": "jen.kruper@mac.com", "coachName": "JP Bordeleau", "managerName": "Jen Kruper"}}, {"pk": 73, "model": "core.team", "fields": {"coachEmail": "Sabrecoachb@yahoo.com", "division": 3, "name": "Sabres #1", "club": 3, "season": 1, "skillLevel": 5, "managerEmail": "john@iflafleur.com", "coachName": "Brendan Sheehan", "managerName": "John Lafleur"}}, {"pk": 74, "model": "core.team", "fields": {"coachEmail": "hockey.55@comcast.net", "division": 3, "name": "Chargers #1 ", "club": 12, "season": 1, "skillLevel": 5, "managerEmail": "dpeterson@greenlawoffice.net", "coachName": "Ken Sall", "managerName": "Dave Peterson"}}, {"pk": 75, "model": "core.team", "fields": {"coachEmail": "bmcmahon9@comcast.net", "division": 3, "name": "Wilmette #1 ", "club": 6, "season": 1, "skillLevel": 5, "managerEmail": "grinmar@comcast.net", "coachName": "Brad McMahon", "managerName": "Valerie Maragos"}}, {"pk": 76, "model": "core.team", "fields": {"coachEmail": "Stevies65@aol.com", "division": 3, "name": "Redwings #1", "club": 13, "season": 1, "skillLevel": 5, "managerEmail": "ralphkunzmann@comcast.net", "coachName": "Steve Sarauer", "managerName": "MaryJo Kunzmann"}}, {"pk": 77, "model": "core.team", "fields": {"coachEmail": "Chishark18@sbcglobal.net", "division": 3, "name": "Winnetka #1", "club": 8, "season": 1, "skillLevel": 5, "managerEmail": "Slm0206@aol.com", "coachName": "Mike Vasilevich", "managerName": "Susan Marren"}}, {"pk": 78, "model": "core.team", "fields": {"coachEmail": "wtoter@anl.gov", "division": 3, "name": "Express #1", "club": 7, "season": 1, "skillLevel": 5, "managerEmail": "Icebyz216@yahoo.com", "coachName": "Bill Toter", "managerName": "Elayne DeSalvo"}}, {"pk": 79, "model": "core.team", "fields": {"coachEmail": "pfligler@sbcglobal.net", "division": 3, "name": "Skokie #1", "club": 23, "season": 1, "skillLevel": 5, "managerEmail": "peeweeaa.manager@flyershockey.org", "coachName": "Jim Pfligler", "managerName": "Jan Starzec"}}, {"pk": 80, "model": "core.team", "fields": {"coachEmail": "griffinschiele@gmail.com", "division": 3, "name": "Huskies #1", "club": 4, "season": 1, "skillLevel": 2, "managerEmail": "tpzjsmith@comcast.net", "coachName": "Griffin Schiele", "managerName": "Paula Smith"}}, {"pk": 81, "model": "core.team", "fields": {"coachEmail": "rvennetti@veepak.com", "division": 3, "name": "Vikings #2", "club": 10, "season": 1, "skillLevel": 2, "managerEmail": "bcryan5@sbcglobal.net", "coachName": "Ralph Vennetti", "managerName": "Colleen Ryan"}}, {"pk": 82, "model": "core.team", "fields": {"coachEmail": "tjwalshii@yahoo.com", "division": 3, "name": "Wilmette #2", "club": 6, "season": 1, "skillLevel": 2, "managerEmail": "tracygarden@hotmail.com", "coachName": "Tom Walsh", "managerName": "Tracy Garden"}}, {"pk": 83, "model": "core.team", "fields": {"coachEmail": "Eberhardt@edseyart.com", "division": 3, "name": "Ice Dogs #2", "club": 9, "season": 1, "skillLevel": 2, "managerEmail": "chrisnieckula@edisonconstruction.com", "coachName": "Paul Eberhardt", "managerName": "Chris Nieckula"}}, {"pk": 84, "model": "core.team", "fields": {"coachEmail": "Luv_r_kids@yahoo.com", "division": 3, "name": "Bruins #1 ", "club": 19, "season": 1, "skillLevel": 2, "managerEmail": "garyolson481@yahoo.com", "coachName": "Ken Petropoulos", "managerName": "Gary Olson"}}, {"pk": 85, "model": "core.team", "fields": {"coachEmail": "Campreno@aol.com", "division": 3, "name": "CYA #1", "club": 27, "season": 1, "skillLevel": 2, "managerEmail": "jeff.lytle@cit.com", "coachName": "Mike Glass", "managerName": "Jeff Lytle"}}, {"pk": 86, "model": "core.team", "fields": {"coachEmail": "coachphilg@hotmail.com", "division": 3, "name": "Cyclones #2 ", "club": 16, "season": 1, "skillLevel": 2, "managerEmail": "kbellandi@comcast.net", "coachName": "Phil Gabrielsen", "managerName": "Karla Bellandi"}}, {"pk": 87, "model": "core.team", "fields": {"coachEmail": "rvennetti@veepak.com", "division": 3, "name": "Vikings #3", "club": 10, "season": 1, "skillLevel": 2, "managerEmail": "bcryan5@sbcglobal.net", "coachName": "Ralph Vennetti", "managerName": "Colleen Ryan"}}, {"pk": 88, "model": "core.team", "fields": {"coachEmail": "djoroche@gmail.com", "division": 3, "name": "Jets #1", "club": 11, "season": 1, "skillLevel": 2, "managerEmail": "knusta@gmail.com", "coachName": "Dan Roche", "managerName": "Kathy Knusta"}}, {"pk": 89, "model": "core.team", "fields": {"coachEmail": "Sjakubowski62170@aol.com", "division": 3, "name": "Mission #1", "club": 28, "season": 1, "skillLevel": 3, "managerEmail": "pebblypoo2@comcast.net", "coachName": "Steve Jakubowski", "managerName": "Pam Dinella"}}, {"pk": 90, "model": "core.team", "fields": {"coachEmail": "coachjoe@ameritech.net", "division": 3, "name": "St. Jude #1", "club": 21, "season": 1, "skillLevel": 3, "managerEmail": "gsink1@wowway.com", "coachName": "Joe Frankenbach", "managerName": "Grace Sink"}}, {"pk": 91, "model": "core.team", "fields": {"coachEmail": "Sberg16@aol.com", "division": 3, "name": "Winnetka #2", "club": 8, "season": 1, "skillLevel": 3, "managerEmail": "nan@doyal.net", "coachName": "Scott Berger", "managerName": "Nan Doyal"}}, {"pk": 92, "model": "core.team", "fields": {"coachEmail": "Alonzo_peter@yahoo.com", "division": 3, "name": "Bruins #2", "club": 19, "season": 1, "skillLevel": 3, "managerEmail": "RWosilus@yahoo.com", "coachName": "Peter Alonzo", "managerName": "Randy Wosilus"}}, {"pk": 93, "model": "core.team", "fields": {"coachEmail": "tzordan@comcast.net", "division": 3, "name": "Yellow Jackets #2", "club": 15, "season": 1, "skillLevel": 3, "managerEmail": "dnobbe@sbcglobal.net", "coachName": "Tom Zordan", "managerName": "Tammy Nobbe"}}, {"pk": 94, "model": "core.team", "fields": {"coachEmail": "jindurante@sbcglobal.net", "division": 3, "name": "Express #2", "club": 7, "season": 1, "skillLevel": 3, "managerEmail": "pergastolo@comcast.net", "coachName": "Joe Indurante", "managerName": "Phil Ergastolo"}}, {"pk": 95, "model": "core.team", "fields": {"coachEmail": "wagsonice@hotmail.com", "division": 3, "name": "Falcons #2", "club": 1, "season": 1, "skillLevel": 3, "managerEmail": "kwinemaster@powergreatlakes.com", "coachName": "Mike Wagner", "managerName": "Ken Winemaster"}}, {"pk": 96, "model": "core.team", "fields": {"coachEmail": "brev14@comcast.net", "division": 3, "name": "Sabres #2", "club": 3, "season": 1, "skillLevel": 3, "managerEmail": "bsle@sbcglobal.net", "coachName": "Don Breivk", "managerName": "Bill Slezak"}}, {"pk": 97, "model": "core.team", "fields": {"coachEmail": "albanese9@comcast.net", "division": 3, "name": "St. Jude #2", "club": 21, "season": 1, "skillLevel": 4, "managerEmail": "albanese9@comcast.net", "coachName": "Paul Albanese", "managerName": "Angela Albanese"}}, {"pk": 98, "model": "core.team", "fields": {"coachEmail": "jyomantas@hotmail.com", "division": 3, "name": "Rockford #2", "club": 29, "season": 1, "skillLevel": 4, "managerEmail": "ehansen7449@charter.net", "coachName": "John Yomantas", "managerName": "Erik Hansen"}}, {"pk": 99, "model": "core.team", "fields": {"coachEmail": "hawkdirector@aol.com", "division": 3, "name": "Hawks #1", "club": 17, "season": 1, "skillLevel": 4, "managerEmail": "jtedesco@stamarpackaging.com", "coachName": "Mike Smolen", "managerName": "Joe Tedesco"}}, {"pk": 100, "model": "core.team", "fields": {"coachEmail": "coachkeen@aol.com", "division": 3, "name": "Chargers #2", "club": 12, "season": 1, "skillLevel": 4, "managerEmail": "RCielenski@comcast.net", "coachName": "Ken Smith", "managerName": "Bob Cielenski"}}, {"pk": 101, "model": "core.team", "fields": {"coachEmail": "omnigfx@mindspring.com", "division": 3, "name": "Glenview #2", "club": 5, "season": 1, "skillLevel": 4, "managerEmail": "chicagodutch@yahoo.com", "coachName": "Bill Brush", "managerName": "Kim Vanderveen"}}, {"pk": 102, "model": "core.team", "fields": {"coachEmail": "Remme803@aol.com", "division": 3, "name": "Blues #2 ", "club": 2, "season": 1, "skillLevel": 4, "managerEmail": "mfontana@alitho.com", "coachName": "Rob Emme", "managerName": "Mike Fontana"}}, {"pk": 103, "model": "core.team", "fields": {"coachEmail": "ram1982@sbcglobal.net", "division": 3, "name": "Northbrook #2 ", "club": 18, "season": 1, "skillLevel": 4, "managerEmail": "jhanlonj@gmail.com", "coachName": "R.A. Mobile", "managerName": "Jim Hanlon"}}, {"pk": 104, "model": "core.team", "fields": {"coachEmail": "acoombe52@aol.com", "division": 3, "name": "Wildkits #2", "club": 25, "season": 1, "skillLevel": 4, "managerEmail": "ALDickerson@integrysenergy.com", "coachName": "Adam Coombe", "managerName": "Andrew Dickerson"}}, {"pk": 105, "model": "core.team", "fields": {"coachEmail": "tipsi2@mtco.com", "division": 3, "name": "Peoria #1", "club": 24, "season": 1, "skillLevel": 4, "managerEmail": "rcrebo@comcast.net", "coachName": "Dennis Tipsword", "managerName": "Rick Crebo"}}, {"pk": 106, "model": "core.team", "fields": {"coachEmail": "erb2@comcast.net", "division": 3, "name": "Skokie #2", "club": 23, "season": 1, "skillLevel": 1, "managerEmail": "peeweea.manager@flyershockey.org", "coachName": "Gene Beale", "managerName": "Ed Rogowski"}}, {"pk": 107, "model": "core.team", "fields": {"coachEmail": "ktodo1633@yahoo.com", "division": 3, "name": "Huskies #2", "club": 4, "season": 1, "skillLevel": 1, "managerEmail": "k.guseman@comcast.net", "coachName": "Ken Todorov", "managerName": "Dave Guseman"}}, {"pk": 108, "model": "core.team", "fields": {"coachEmail": "", "division": 3, "name": "Falcons #3 ", "club": 1, "season": 1, "skillLevel": 1, "managerEmail": "gattari@comcast.net", "coachName": "Bryan O\u2019Connor", "managerName": "Jennifer Gattari"}}, {"pk": 109, "model": "core.team", "fields": {"coachEmail": "lsbeller@att.net", "division": 3, "name": "Redwings #2 ", "club": 13, "season": 1, "skillLevel": 1, "managerEmail": "teresabu@comcast.net", "coachName": "Larry Beller", "managerName": "Teresa Krueger"}}, {"pk": 110, "model": "core.team", "fields": {"coachEmail": "KGrant@harrisassoc.com", "division": 3, "name": "Wilmette #3", "club": 6, "season": 1, "skillLevel": 1, "managerEmail": "kklarsen@sbcglobal.net", "coachName": "Kevin Grant", "managerName": "Kirsten Larsen"}}, {"pk": 111, "model": "core.team", "fields": {"coachEmail": "c.davis9042@aol.com", "division": 3, "name": "Vikings #4", "club": 10, "season": 1, "skillLevel": 1, "managerEmail": "hkysns1@aol.com", "coachName": "Chuck Davis", "managerName": "Michelle Pollos"}}, {"pk": 112, "model": "core.team", "fields": {"coachEmail": "masmith18@hotmail.com", "division": 3, "name": "Jets #2", "club": 11, "season": 1, "skillLevel": 1, "managerEmail": "sorkin@comcast.net", "coachName": "Matt Smith", "managerName": "Stuart Sorkin"}}, {"pk": 113, "model": "core.team", "fields": {"coachEmail": "HimleyCo@comcast.net", "division": 3, "name": "Ice Dogs #3", "club": 9, "season": 1, "skillLevel": 1, "managerEmail": "B.Wiacek@sbcglobal.ent", "coachName": "Robin Himley", "managerName": "Bob Wiacek"}}, {"pk": 114, "model": "core.team", "fields": {"coachEmail": "puckhead2297@yahoo.com", "division": 3, "name": "Cyclones #3", "club": 16, "season": 1, "skillLevel": 7, "managerEmail": "johnmcoakley@att.net", "coachName": "Keith Gorczyka", "managerName": "John Coakley"}}, {"pk": 115, "model": "core.team", "fields": {"coachEmail": "biglousproshop@gmail.com", "division": 3, "name": "Glenview #3", "club": 5, "season": 1, "skillLevel": 7, "managerEmail": "smarinic@comcast.net", "coachName": "Jeff Marks", "managerName": "Sandy Marinic"}}, {"pk": 116, "model": "core.team", "fields": {"coachEmail": "david.gullott@exelongcorp.com", "division": 3, "name": "Sabres #3", "club": 3, "season": 1, "skillLevel": 7, "managerEmail": "harrisjp@comcast.net", "coachName": "Dave Gullot", "managerName": "Jason Harris"}}, {"pk": 117, "model": "core.team", "fields": {"coachEmail": "markennis17@yahoo.com", "division": 3, "name": "Jets #3", "club": 11, "season": 1, "skillLevel": 7, "managerEmail": "roberta@horwitzlaw.com", "coachName": "MJ Ennis", "managerName": "Roberta Horwitz"}}, {"pk": 118, "model": "core.team", "fields": {"coachEmail": "Jlp326@hotmail.com", "division": 3, "name": "Hawks #2", "club": 17, "season": 1, "skillLevel": 7, "managerEmail": "cubasports@comcast.net", "coachName": "Jim LaPorte", "managerName": "Sam Cuba"}}, {"pk": 119, "model": "core.team", "fields": {"coachEmail": "billmartin@jamielindsey.com", "division": 3, "name": "Northbrook #3 ", "club": 18, "season": 1, "skillLevel": 7, "managerEmail": "LJTJROSE@aol.com", "coachName": "Bill Martin", "managerName": "Jason Rose"}}, {"pk": 120, "model": "core.team", "fields": {"coachEmail": "hkycochasc@sbcglobal.net", "division": 3, "name": "Winnetka #3", "club": 8, "season": 1, "skillLevel": 7, "managerEmail": "valerious@mac.com", "coachName": "Bill Kilcoyne", "managerName": "Randi Valerious"}}, {"pk": 121, "model": "core.team", "fields": {"coachEmail": "d.niestrom@comcast.net", "division": 4, "name": "Sabres #4", "club": 3, "season": 1, "skillLevel": 1, "managerEmail": "sdimonte@dimontegroup.com", "coachName": "Dennis Niestrom", "managerName": "Sandra Dimonte"}}, {"pk": 122, "model": "core.team", "fields": {"coachEmail": "bfpucks23@hotmail.com", "division": 4, "name": "Sabres #3", "club": 3, "season": 1, "skillLevel": 1, "managerEmail": "tinfam3@hotmail.com", "coachName": "Brian Fisher", "managerName": "Sherry Tindell"}}, {"pk": 123, "model": "core.team", "fields": {"coachEmail": "jaguarmikec@aol.com", "division": 4, "name": "Jaguars #2", "club": 31, "season": 1, "skillLevel": 1, "managerEmail": "pmhall8@yahoo.com", "coachName": "Mike Carouchi", "managerName": "Pat Hall"}}, {"pk": 124, "model": "core.team", "fields": {"coachEmail": "jcimba@glcomm.com", "division": 4, "name": "Wilmette #3", "club": 6, "season": 1, "skillLevel": 1, "managerEmail": "smcmahon@splunk.com", "coachName": "John Cimba", "managerName": "Sean McMahon"}}, {"pk": 125, "model": "core.team", "fields": {"coachEmail": "rrs09@aol.com", "division": 4, "name": "Redwings #2", "club": 13, "season": 1, "skillLevel": 1, "managerEmail": "louise@livecoachonline.com", "coachName": "Ron Sowizrol", "managerName": "Louise Knutter"}}, {"pk": 126, "model": "core.team", "fields": {"coachEmail": "gmarzejon@metlife.com", "division": 4, "name": "Leafs #2", "club": 14, "season": 1, "skillLevel": 1, "managerEmail": "amo@joltmail.com", "coachName": "Jerry Marzejon", "managerName": "Anne O\u2019Hara"}}, {"pk": 127, "model": "core.team", "fields": {"coachEmail": "t.pellettiere@yahoo.com", "division": 4, "name": "Falcons #2", "club": 14, "season": 1, "skillLevel": 1, "managerEmail": "lsschoeneman@aol.com", "coachName": "Tim Pellettiere", "managerName": "Laura Schoeneman"}}, {"pk": 128, "model": "core.team", "fields": {"coachEmail": "Dynamo_24@hotmail.com", "division": 4, "name": "Winnetka #3", "club": 8, "season": 1, "skillLevel": 1, "managerEmail": "kjellenberg@att.net", "coachName": "Paul Schwartz", "managerName": "Paula Kjellenberg"}}, {"pk": 129, "model": "core.team", "fields": {"coachEmail": "brad708@yahoo.com", "division": 4, "name": "Jets #2", "club": 11, "season": 1, "skillLevel": 1, "managerEmail": "ajcarone@gmail.com", "coachName": "Brad Erickson", "managerName": "Tony Carone"}}, {"pk": 130, "model": "core.team", "fields": {"coachEmail": "ralph@brandonisio.com", "division": 4, "name": "Cyclones #2", "club": 16, "season": 1, "skillLevel": 1, "managerEmail": "cinwilly@aol.com", "coachName": "Ralph Brandonisio", "managerName": "Cindy Wilson"}}, {"pk": 131, "model": "core.team", "fields": {"coachEmail": "bdore@greensceneil.net", "division": 4, "name": "Bruins #2 ", "club": 19, "season": 1, "skillLevel": 3, "managerEmail": "DLP516@sbcglobal.net", "coachName": "Bob Dore", "managerName": "Lisa Parducci"}}, {"pk": 132, "model": "core.team", "fields": {"coachEmail": "jhiss@roberthenrycorp.com", "division": 4, "name": "Irish #2", "club": 20, "season": 1, "skillLevel": 3, "managerEmail": "popovicmp@comcast.net", "coachName": "Jim Hiss", "managerName": "Paige Popovic"}}, {"pk": 133, "model": "core.team", "fields": {"coachEmail": "bhaight@alumi.nmu.edu", "division": 4, "name": "Rockford #2", "club": 29, "season": 1, "skillLevel": 3, "managerEmail": "fishgutz1@charter.net", "coachName": "Brandon Haight", "managerName": "Kim Moore"}}, {"pk": 134, "model": "core.team", "fields": {"coachEmail": "mcgrenera@aol.com", "division": 4, "name": "St. Jude #1", "club": 21, "season": 1, "skillLevel": 3, "managerEmail": "lizboyle@comcast.net", "coachName": "Bill McGrenera", "managerName": "Liz Boyle"}}, {"pk": 135, "model": "core.team", "fields": {"coachEmail": "npanos@learningresources.com", "division": 4, "name": "Glenview #1", "club": 5, "season": 1, "skillLevel": 3, "managerEmail": "jeffbrummitt@comcast.net", "coachName": "Nick Panos", "managerName": "Jeff Brummitt"}}, {"pk": 136, "model": "core.team", "fields": {"coachEmail": "keith.vandamme@firewagonhockey.com", "division": 4, "name": "Yellow Jackets #2", "club": 15, "season": 1, "skillLevel": 3, "managerEmail": "jmaier@ibfosterco.com", "coachName": "Casey VanDamme", "managerName": "Jim Maier"}}, {"pk": 137, "model": "core.team", "fields": {"coachEmail": "Coachbrien@comcast.net", "division": 4, "name": "Leafs #1", "club": 14, "season": 1, "skillLevel": 3, "managerEmail": "whanebrink@comcast.net", "coachName": "Brien Martin", "managerName": "Wendy Hanebrink"}}, {"pk": 138, "model": "core.team", "fields": {"coachEmail": "dicharia5503@attnet.com", "division": 4, "name": "Sabres #2", "club": 3, "season": 1, "skillLevel": 3, "managerEmail": "jatkins02@comcast.net", "coachName": "John Dicharia", "managerName": "Jeff Atkins"}}, {"pk": 139, "model": "core.team", "fields": {"coachEmail": "", "division": 4, "name": "Pekin #1", "club": 26, "season": 1, "skillLevel": 3, "managerEmail": "idk@idk.com", "coachName": "", "managerName": "i dont know"}}, {"pk": 140, "model": "core.team", "fields": {"coachEmail": "pfligler@sbcglobal.net", "division": 4, "name": "Skokie #1", "club": 23, "season": 1, "skillLevel": 3, "managerEmail": "bantam.manager@flyershockey.org", "coachName": "Jim Pfligler", "managerName": "Sherry Quinlan"}}, {"pk": 141, "model": "core.team", "fields": {"coachEmail": "turcotte@chicagoblueshockey.org", "division": 4, "name": "Blues #2", "club": 2, "season": 1, "skillLevel": 3, "managerEmail": "cityfinisher@sbcglobal.net", "coachName": "Alfie Turcotte", "managerName": "Marcelo Adamo"}}, {"pk": 142, "model": "core.team", "fields": {"coachEmail": "djsechrist@gmail.com", "division": 4, "name": "Vikings #3", "club": 10, "season": 1, "skillLevel": 3, "managerEmail": "bcn1257@comcast.net", "coachName": "Dan Sechrist", "managerName": "Brenda Nocera"}}, {"pk": 143, "model": "core.team", "fields": {"coachEmail": "fjackle6@hotmail.com", "division": 4, "name": "Express #2 ", "club": 7, "season": 1, "skillLevel": 2, "managerEmail": "shutterboy27@comcast.net", "coachName": "Jim Fitzgerald", "managerName": "Rob Kliczko"}}, {"pk": 144, "model": "core.team", "fields": {"coachEmail": "Richvee21@hotmail.com", "division": 4, "name": "Hawks #2", "club": 17, "season": 1, "skillLevel": 2, "managerEmail": "rcrmomfunk@sbcglobal.net", "coachName": "Rich Vlach", "managerName": "Shirley Funk"}}, {"pk": 145, "model": "core.team", "fields": {"coachEmail": "Mark.tobi@sbcglobal.net", "division": 4, "name": "Winnetka #2", "club": 8, "season": 1, "skillLevel": 2, "managerEmail": "Trish23@comcast.net", "coachName": "Mark Dieker", "managerName": "Trish Kilcoyne"}}, {"pk": 146, "model": "core.team", "fields": {"coachEmail": "patrick_philbin@hines.com", "division": 4, "name": "Maniax #1", "club": 30, "season": 1, "skillLevel": 2, "managerEmail": "wilkymom@aol.com", "coachName": "Pat Philbin", "managerName": "Rachel Wilkinson"}}, {"pk": 147, "model": "core.team", "fields": {"coachEmail": "jcimba@glcomm.com", "division": 4, "name": "Wilmette #2", "club": 6, "season": 1, "skillLevel": 2, "managerEmail": "tcimba@glcomm.com", "coachName": "John Cimba", "managerName": "Tracy Cimba"}}, {"pk": 148, "model": "core.team", "fields": {"coachEmail": "mrfaceoff12@aol.com", "division": 4, "name": "Falcons #1", "club": 1, "season": 1, "skillLevel": 2, "managerEmail": "phil@clarkee.us", "coachName": "Norm Janis", "managerName": "Phil Clarke"}}, {"pk": 149, "model": "core.team", "fields": {"coachEmail": "tedwardson@waukeganschools.org", "division": 4, "name": "Northbrook #2", "club": 18, "season": 1, "skillLevel": 2, "managerEmail": "bsuth@nzalaw.com", "coachName": "Tim Edwardson", "managerName": "Brian Suth"}}, {"pk": 150, "model": "core.team", "fields": {"coachEmail": "iuhockey23@yahoo.com", "division": 4, "name": "Ice Dogs #2", "club": 9, "season": 1, "skillLevel": 2, "managerEmail": "anja.valente@comcast.net", "coachName": "Darrell Houtari", "managerName": "Anja Valente"}}, {"pk": 151, "model": "core.team", "fields": {"coachEmail": "", "division": 4, "name": "Huskies #1", "club": 4, "season": 1, "skillLevel": 2, "managerEmail": "idk@idk.com", "coachName": "", "managerName": "i dont kno"}}, {"pk": 152, "model": "core.team", "fields": {"coachEmail": "rob@trueperformancefitness.com", "division": 4, "name": "Chargers #1", "club": 12, "season": 1, "skillLevel": 2, "managerEmail": "rcruthe@comcast.net", "coachName": "Rob Rosmis", "managerName": "Richard Ruthe"}}, {"pk": 153, "model": "core.team", "fields": {"coachEmail": "dohman@admiralshockeyclub.com", "division": 4, "name": "Admirals #1 ", "club": 22, "season": 1, "skillLevel": 5, "managerEmail": "julie.baughman@fnis.com", "coachName": "Dale Ohman", "managerName": "Julie Baughman"}}, {"pk": 154, "model": "core.team", "fields": {"coachEmail": "jmcdon9071@comcast.net", "division": 4, "name": "Vikings #2", "club": 10, "season": 1, "skillLevel": 5, "managerEmail": "bigdorts44@aol.com", "coachName": "John McDonnell", "managerName": "Ed Dougherty"}}, {"pk": 155, "model": "core.team", "fields": {"coachEmail": "kahnjimmy81@gmail.com", "division": 4, "name": "Wildkits #1", "club": 25, "season": 1, "skillLevel": 5, "managerEmail": "VATRDRSL@aol.com", "coachName": "Jimmy Kahn", "managerName": "Scott Lundgren"}}, {"pk": 156, "model": "core.team", "fields": {"coachEmail": "coachbloome@gmail.com", "division": 4, "name": "Hawks #1", "club": 17, "season": 1, "skillLevel": 5, "managerEmail": "4snyders@comcast.net", "coachName": "Mike Bloome", "managerName": "Cheryl Snyder"}}, {"pk": 157, "model": "core.team", "fields": {"coachEmail": "", "division": 4, "name": "Winnetka #1", "club": 8, "season": 1, "skillLevel": 5, "managerEmail": "idk@idk.com", "coachName": "", "managerName": "i dont know"}}, {"pk": 158, "model": "core.team", "fields": {"coachEmail": "scpuck9@comcast.net", "division": 4, "name": "Jaguars #1", "club": 31, "season": 1, "skillLevel": 5, "managerEmail": "danndebl@aol.com", "coachName": "Scott Coash", "managerName": "Deb Lagioia"}}, {"pk": 159, "model": "core.team", "fields": {"coachEmail": "sefesus@armstrong.com", "division": 4, "name": "Sabres #1", "club": 3, "season": 1, "skillLevel": 5, "managerEmail": "sorfleet@aol.com", "coachName": "Scott Fesus", "managerName": "Bob Sorfleet"}}, {"pk": 160, "model": "core.team", "fields": {"coachEmail": "tsellden@comcast.net", "division": 4, "name": "Irish #1", "club": 20, "season": 1, "skillLevel": 5, "managerEmail": "d.mensik@yahoo.com", "coachName": "Tom Sellden", "managerName": "Dave Mensik"}}, {"pk": 161, "model": "core.team", "fields": {"coachEmail": "cjs4949@aol.com", "division": 4, "name": "Jets #1", "club": 11, "season": 1, "skillLevel": 5, "managerEmail": "tom.bell@omd.com", "coachName": "Chris Schorum", "managerName": "Tom Bell"}}, {"pk": 162, "model": "core.team", "fields": {"coachEmail": "Robhutson@aol.com", "division": 4, "name": "Redwings #1", "club": 13, "season": 1, "skillLevel": 5, "managerEmail": "vbperille@prodigy.net", "coachName": "Rob Hutson", "managerName": "Vicki Perille"}}, {"pk": 163, "model": "core.team", "fields": {"coachEmail": "Dohertyx6@comcast.net", "division": 4, "name": "Blues #1", "club": 2, "season": 1, "skillLevel": 6, "managerEmail": "j.rooney@comcast.net", "coachName": "John Doherty", "managerName": "John Rooney"}}, {"pk": 164, "model": "core.team", "fields": {"coachEmail": "silenzi@comcast.net", "division": 4, "name": "Express #1", "club": 7, "season": 1, "skillLevel": 6, "managerEmail": "scott.dyball@us.ul.com", "coachName": "Dan Silenzi Scott Dyball", "managerName": "Scott Dyball"}}, {"pk": 165, "model": "core.team", "fields": {"coachEmail": "rmenotti@trademarkcomm.com", "division": 4, "name": "Ice Dogs #1", "club": 9, "season": 1, "skillLevel": 6, "managerEmail": "maof3byz@comcast.net", "coachName": "Ralph Menotti", "managerName": "Janet Smith"}}, {"pk": 166, "model": "core.team", "fields": {"coachEmail": "mjalcovik@yahoo.com", "division": 4, "name": "Vikings #1", "club": 10, "season": 1, "skillLevel": 6, "managerEmail": "hockeyfam1@comcast.net", "coachName": "Mark Jalcovik", "managerName": "Joanne Bilecki"}}, {"pk": 167, "model": "core.team", "fields": {"coachEmail": "bseg22@comcast.net", "division": 4, "name": "Cyclones #1", "club": 16, "season": 1, "skillLevel": 6, "managerEmail": "edyeburton@aol.net", "coachName": "Frank Bisceglie", "managerName": "Edye Burton"}}, {"pk": 168, "model": "core.team", "fields": {"coachEmail": "fcasalena@yahoo.com", "division": 4, "name": "Rockford #1", "club": 29, "season": 1, "skillLevel": 6, "managerEmail": "gary.goethals@motorola.com", "coachName": "Frank Casalina", "managerName": "Gary Goethals"}}, {"pk": 169, "model": "core.team", "fields": {"coachEmail": "Ebbole1@comcast.net", "division": 4, "name": "Bruins #1", "club": 19, "season": 1, "skillLevel": 6, "managerEmail": "hckydad39@comcast.net", "coachName": "Ron Ebbole", "managerName": "Pete Neilson"}}, {"pk": 170, "model": "core.team", "fields": {"coachEmail": "mbrunner30@sbcglobal.net", "division": 4, "name": "Northbrook #1", "club": 18, "season": 1, "skillLevel": 6, "managerEmail": "bcmemolo@sbcglobal.net", "coachName": "Mark Brunner", "managerName": "Beth Memolo"}}, {"pk": 171, "model": "core.team", "fields": {"coachEmail": "", "division": 4, "name": "Wilmette #1", "club": 6, "season": 1, "skillLevel": 6, "managerEmail": "idk@idk.com", "coachName": "", "managerName": "i dont know"}}, {"pk": 172, "model": "core.team", "fields": {"coachEmail": "rrlhockey@aol.com", "division": 2, "name": "Redwings #1", "club": 13, "season": 1, "skillLevel": 1, "managerEmail": "jbenages@comcast.net", "coachName": "Bob Lee", "managerName": "Jim Benages"}}, {"pk": 173, "model": "core.team", "fields": {"coachEmail": "mfindlay@winpark.org", "division": 2, "name": "Winnetka #3", "club": 8, "season": 1, "skillLevel": 1, "managerEmail": "lizwieczorek@me.com", "coachName": "Mark Findlay", "managerName": "Liz Wieczorek"}}, {"pk": 174, "model": "core.team", "fields": {"coachEmail": "davidcmcgowan@comcast.net", "division": 2, "name": "Falcons #3", "club": 1, "season": 1, "skillLevel": 1, "managerEmail": "marty@kinczelappraisals.com", "coachName": "Dave McGowan", "managerName": "Marty Kinczel"}}, {"pk": 175, "model": "core.team", "fields": {"coachEmail": "koedding12348@comcast.net", "division": 2, "name": "Huskies #2", "club": 4, "season": 1, "skillLevel": 1, "managerEmail": "jenjenchan68@gmail.com", "coachName": "Jim Koedding", "managerName": "Jennifer Chan"}}, {"pk": 176, "model": "core.team", "fields": {"coachEmail": "terryn@absinet.com", "division": 2, "name": "Leafs #3", "club": 14, "season": 1, "skillLevel": 1, "managerEmail": "molly.przeklasa@gmail.com", "coachName": "Terry Nolan", "managerName": "Molly Przeklasa"}}, {"pk": 177, "model": "core.team", "fields": {"coachEmail": "jeff.defrancesca@gmail.com", "division": 2, "name": "Glenview #3", "club": 5, "season": 1, "skillLevel": 1, "managerEmail": "sfbend@wowway.com", "coachName": "Jeff DeFrancesca", "managerName": "Stephanie Bendewald,"}}, {"pk": 178, "model": "core.team", "fields": {"coachEmail": "kevindavid66@msn.com", "division": 2, "name": "Sabres #3", "club": 3, "season": 1, "skillLevel": 1, "managerEmail": "brett.boscarino@gmail.com", "coachName": "Kevin Curran", "managerName": "Brett Boscarino"}}, {"pk": 179, "model": "core.team", "fields": {"coachEmail": "", "division": 2, "name": "Pekin #2", "club": 26, "season": 1, "skillLevel": 1, "managerEmail": "noemail@yahoo.com", "coachName": "", "managerName": "no name"}}, {"pk": 180, "model": "core.team", "fields": {"coachEmail": "jjrising1979@yahoo.com", "division": 2, "name": "Wilmette #4", "club": 6, "season": 1, "skillLevel": 1, "managerEmail": "sheri.herd@comcast.net", "coachName": "Joe Ascaridis", "managerName": "Sheri Herd"}}, {"pk": 181, "model": "core.team", "fields": {"coachEmail": "mlschlie@gmail.com", "division": 2, "name": "Jets #3", "club": 11, "season": 1, "skillLevel": 1, "managerEmail": "kellymoran@me.com", "coachName": "Mike Schlie", "managerName": "Kelly Moran"}}, {"pk": 182, "model": "core.team", "fields": {"coachEmail": "jjrising1979@yahoo.com", "division": 2, "name": "Wilmette #3", "club": 6, "season": 1, "skillLevel": 7, "managerEmail": "sheri.herd@comcast.net", "coachName": "Joe Ascaridis", "managerName": "Sheri Herd"}}, {"pk": 183, "model": "core.team", "fields": {"coachEmail": "pfalconer@technology2lifstyles.com", "division": 2, "name": "Ice Dogs #3", "club": 9, "season": 1, "skillLevel": 7, "managerEmail": "kjohnson@glacierskate.com", "coachName": "Bob Falconer", "managerName": "Jamie Goldberg"}}, {"pk": 184, "model": "core.team", "fields": {"coachEmail": "Kfergy27@sbcglobal.net", "division": 2, "name": "Vikings #3", "club": 10, "season": 1, "skillLevel": 7, "managerEmail": "Kim.simon67@yahoo.com", "coachName": "Keith Ferguson", "managerName": "Kim Simon"}}, {"pk": 185, "model": "core.team", "fields": {"coachEmail": "kensrussell@yahoo.com", "division": 2, "name": "Jaguars #2", "club": 31, "season": 1, "skillLevel": 7, "managerEmail": "travel95@yahoo.com", "coachName": "Ken Russell", "managerName": "Paul & Kim Bomba"}}, {"pk": 186, "model": "core.team", "fields": {"coachEmail": "davidlobdell@sbcglobal.net", "division": 2, "name": "Sabres #4", "club": 3, "season": 1, "skillLevel": 7, "managerEmail": "gretchencockey@yahoo.com", "coachName": "Dave Lobdell", "managerName": "Gretchen Cockey"}}, {"pk": 187, "model": "core.team", "fields": {"coachEmail": "tammydicksen@comcast.net", "division": 2, "name": "St. Jude #2", "club": 21, "season": 1, "skillLevel": 7, "managerEmail": "marybeth.mccarthy@gmail.com", "coachName": "Rich Dicksen", "managerName": "MaryBeth McCarthy"}}, {"pk": 188, "model": "core.team", "fields": {"coachEmail": "", "division": 2, "name": "Yellow Jackets #2", "club": 15, "season": 1, "skillLevel": 7, "managerEmail": "noemail@email.com", "coachName": "", "managerName": "no listed"}}, {"pk": 189, "model": "core.team", "fields": {"coachEmail": "tracyhmura@comcast.net", "division": 2, "name": "Hawks #3", "club": 17, "season": 1, "skillLevel": 7, "managerEmail": "davemartin7@yahoo.com", "coachName": "Jeff Hmura", "managerName": "Dave Martin"}}, {"pk": 190, "model": "core.team", "fields": {"coachEmail": "MNoonan30@sbcglobal.net", "division": 2, "name": "Northbrook #3", "club": 18, "season": 1, "skillLevel": 7, "managerEmail": "cheryljohnson1@comcast.net", "coachName": "Mike Noonan", "managerName": "Cheryl Thomas"}}, {"pk": 191, "model": "core.team", "fields": {"coachEmail": "sdubinsky@glacierhockeyzone.com", "division": 2, "name": "Ice Dogs #1", "club": 9, "season": 1, "skillLevel": 5, "managerEmail": "nihlapp@gmail.com", "coachName": "Steve Dubinsky", "managerName": "Lessa Drazner"}}, {"pk": 192, "model": "core.team", "fields": {"coachEmail": "djknapp16@yahoo.com", "division": 2, "name": "Jaguars #1", "club": 31, "season": 1, "skillLevel": 5, "managerEmail": "nihlapp@gmail.com", "coachName": "Derrick Knapp", "managerName": "Melissa Caruso"}}, {"pk": 193, "model": "core.team", "fields": {"coachEmail": "tobcarpet@yahoo.com", "division": 2, "name": "Express #1", "club": 7, "season": 1, "skillLevel": 5, "managerEmail": "nihlapp@gmail.com", "coachName": "Jim Rosequist", "managerName": "Robin Kliczko"}}, {"pk": 194, "model": "core.team", "fields": {"coachEmail": "Jstadt22@yahoo.com", "division": 2, "name": "Bruins #1", "club": 19, "season": 1, "skillLevel": 5, "managerEmail": "nihlapp@gmail.com", "coachName": "Jeff Jestadt", "managerName": "Renee Kuta"}}, {"pk": 195, "model": "core.team", "fields": {"coachEmail": "janmasopust@falconshockey.org", "division": 2, "name": "Falcons #1", "club": 1, "season": 1, "skillLevel": 5, "managerEmail": "nihlapp@gmail.com", "coachName": "Jan Masopust", "managerName": "Mike Danielewicz"}}, {"pk": 196, "model": "core.team", "fields": {"coachEmail": "rblakey30@sbcglobal.net", "division": 2, "name": "Northbrook #1", "club": 18, "season": 1, "skillLevel": 5, "managerEmail": "nihlapp@gmail.com", "coachName": "Rich Blakey", "managerName": "Barb Pretkelis"}}, {"pk": 197, "model": "core.team", "fields": {"coachEmail": "delayon2@yahoo.com", "division": 2, "name": "Wildkits #1", "club": 25, "season": 1, "skillLevel": 5, "managerEmail": "nihlapp@gmail.com", "coachName": "Del Morris", "managerName": "Peter Giangreco"}}, {"pk": 198, "model": "core.team", "fields": {"coachEmail": "lenzijhn@att.net", "division": 2, "name": "Yellow Jackets #1", "club": 15, "season": 1, "skillLevel": 5, "managerEmail": "nihlapp@gmail.com", "coachName": "John Lenzi", "managerName": "Trisha Nasta"}}, {"pk": 199, "model": "core.team", "fields": {"coachEmail": "nikos.tselios@gmail.com", "division": 2, "name": "Hawks #1", "club": 17, "season": 1, "skillLevel": 5, "managerEmail": "nihlapp@gmail.com", "coachName": "Nikos Tselios", "managerName": "Jody DuFort"}}, {"pk": 200, "model": "core.team", "fields": {"coachEmail": "cbarone@atmiprecast.com", "division": 2, "name": "Leafs #1", "club": 14, "season": 1, "skillLevel": 6, "managerEmail": "mtjjj5@comcast.net", "coachName": "Chris Barone", "managerName": "Tina Wilkens"}}, {"pk": 201, "model": "core.team", "fields": {"coachEmail": "sweil33@gmail.com", "division": 2, "name": "Wilmette #1", "club": 6, "season": 1, "skillLevel": 6, "managerEmail": "tarakochman@yahoo.com", "coachName": "Sean Weil", "managerName": "Tara Kochman"}}, {"pk": 202, "model": "core.team", "fields": {"coachEmail": "sjrgorski9@aol.com", "division": 2, "name": "Vikings #1", "club": 10, "season": 1, "skillLevel": 6, "managerEmail": "bethmkirkwood@comcast.net", "coachName": "Sheldon Gorski", "managerName": "Beth Kirkwood"}}, {"pk": 203, "model": "core.team", "fields": {"coachEmail": "Ken.House@grainger.com", "division": 2, "name": "Jets #1", "club": 11, "season": 1, "skillLevel": 6, "managerEmail": "jmcfarland@pobox.com", "coachName": "Ken House", "managerName": "John McFarland"}}, {"pk": 204, "model": "core.team", "fields": {"coachEmail": "turcotte@chicagoblueshockey.org", "division": 2, "name": "Blues #1", "club": 2, "season": 1, "skillLevel": 6, "managerEmail": "pattyhermann@aol.com", "coachName": "Alfie Turcotte", "managerName": "Patty Hermann"}}, {"pk": 205, "model": "core.team", "fields": {"coachEmail": "craigb@steelwarehouse.net", "division": 2, "name": "Irish #1", "club": 20, "season": 1, "skillLevel": 6, "managerEmail": "pete@lostdunes.com", "coachName": "Criag Brown", "managerName": "Pete Han"}}, {"pk": 206, "model": "core.team", "fields": {"coachEmail": "jpschettek@yahoo.com", "division": 2, "name": "Sabres #1", "club": 3, "season": 1, "skillLevel": 6, "managerEmail": "our3hapas@ameritech.net", "coachName": "Jeff Schettek", "managerName": "Jaynai Fort"}}, {"pk": 207, "model": "core.team", "fields": {"coachEmail": "steve.shulman@hillmech.com", "division": 2, "name": "Glenview #1", "club": 5, "season": 1, "skillLevel": 6, "managerEmail": "Lbbrushwerks@yahoo.com", "coachName": "Steve Shulman", "managerName": "Liz Brush"}}, {"pk": 208, "model": "core.team", "fields": {"coachEmail": "Hedgejj@yahoo.com", "division": 2, "name": "Peoria #1", "club": 24, "season": 1, "skillLevel": 6, "managerEmail": "brach7@mtco.com", "coachName": "Jason Hedge", "managerName": "Julie Brachbill"}}, {"pk": 209, "model": "core.team", "fields": {"coachEmail": "cbarone@atmiprecast.com", "division": 2, "name": "Leafs #2", "club": 14, "season": 1, "skillLevel": 2, "managerEmail": "mtjjj5@comcast.net", "coachName": "Chris Barone", "managerName": "Tina Wilkens"}}, {"pk": 210, "model": "core.team", "fields": {"coachEmail": "Gregg@GreggGuenther.com", "division": 2, "name": "Pekin #1", "club": 26, "season": 1, "skillLevel": 2, "managerEmail": "Russell_Angie_L@cat.com", "coachName": "Gregg Guenther", "managerName": "Angie Russell"}}, {"pk": 211, "model": "core.team", "fields": {"coachEmail": "ricosumner@yahoo.com", "division": 2, "name": "Rockford #1", "club": 29, "season": 1, "skillLevel": 2, "managerEmail": "hockeymom09@comcast.net", "coachName": "Rico Sumner", "managerName": "Sue Kindred"}}, {"pk": 212, "model": "core.team", "fields": {"coachEmail": "james.nelson@rubbermaidcommercial.com", "division": 2, "name": "Sabres #2", "club": 3, "season": 1, "skillLevel": 2, "managerEmail": "tonyatcds@aol.com", "coachName": "Jim Nelson", "managerName": "Tony Ferrandino"}}, {"pk": 213, "model": "core.team", "fields": {"coachEmail": "coachallo@comcast.net", "division": 2, "name": "Winnetka #2", "club": 8, "season": 1, "skillLevel": 2, "managerEmail": "kkilborn@comcast.net", "coachName": "Allan Pecka", "managerName": "Katy Kilborn"}}, {"pk": 214, "model": "core.team", "fields": {"coachEmail": "seniorlargo@hotmail.com", "division": 2, "name": "Northbrook #2", "club": 18, "season": 1, "skillLevel": 2, "managerEmail": "alan4wendy@sbcglobal.net", "coachName": "Randy Schlesinger", "managerName": "Wendy Gould"}}, {"pk": 215, "model": "core.team", "fields": {"coachEmail": "hcky61@hotmail.com", "division": 2, "name": "Cyclones #1", "club": 16, "season": 1, "skillLevel": 2, "managerEmail": "sbstalzer@aol.com", "coachName": "Keith Schroeder", "managerName": "Sue Stalzer"}}, {"pk": 216, "model": "core.team", "fields": {"coachEmail": "btroester@comcast.net", "division": 2, "name": "Irish #2", "club": 20, "season": 1, "skillLevel": 2, "managerEmail": "rckrupp@yahoo.com", "coachName": "Brian Troester", "managerName": "Cindy Krupp"}}, {"pk": 217, "model": "core.team", "fields": {"coachEmail": "Bhanewall@conopco.com", "division": 2, "name": "Bruins #2", "club": 19, "season": 1, "skillLevel": 2, "managerEmail": "susantomasek@sbcglobal.net", "coachName": "Brad Hanewall", "managerName": "Susan Tomasek"}}, {"pk": 218, "model": "core.team", "fields": {"coachEmail": "steveg@skokieparkdistrict.org", "division": 2, "name": "Skokie #1", "club": 23, "season": 1, "skillLevel": 2, "managerEmail": "tom.conley@sbcglobal.net", "coachName": "Steve Glickman", "managerName": "Tom Conley"}}, {"pk": 219, "model": "core.team", "fields": {"coachEmail": "paulkozi@aol.com", "division": 2, "name": "Huskies #1", "club": 4, "season": 1, "skillLevel": 2, "managerEmail": "huskiegoalie30@sbcglobal.net", "coachName": "Paul Koziarz", "managerName": "Jill Mangialardi"}}, {"pk": 220, "model": "core.team", "fields": {"coachEmail": "tlcisme44@gmail.com", "division": 2, "name": "Wildkits #2", "club": 25, "season": 1, "skillLevel": 2, "managerEmail": "kevinrfoote@gmail.com", "coachName": "Todd Chavin", "managerName": "Kevin Foote"}}, {"pk": 221, "model": "core.team", "fields": {"coachEmail": "jdiamond31@hotmail.com", "division": 2, "name": "Wilmette #2", "club": 6, "season": 1, "skillLevel": 3, "managerEmail": "richgaj@aol.com", "coachName": "Jordan Diamond", "managerName": "Rich Bartuce"}}, {"pk": 222, "model": "core.team", "fields": {"coachEmail": "eschneider@glacierskate.com", "division": 2, "name": "Ice Dogs #2", "club": 9, "season": 1, "skillLevel": 3, "managerEmail": "annbarbour@me.com", "coachName": "Eric Schneider", "managerName": "Ann Barbour"}}, {"pk": 223, "model": "core.team", "fields": {"coachEmail": "johndzi@cdwg.com", "division": 2, "name": "St. Jude #1", "club": 21, "season": 1, "skillLevel": 3, "managerEmail": "lynnp@tothind.com", "coachName": "John Dzikowicz", "managerName": "Lynn Prkut"}}, {"pk": 224, "model": "core.team", "fields": {"coachEmail": "Rob.tanakatsubo@gmail.com", "division": 2, "name": "Winnetka #1", "club": 8, "season": 1, "skillLevel": 3, "managerEmail": "Claire.Hearn@mac.com", "coachName": "Robert Tanakatsubo", "managerName": "Claire Hearn"}}, {"pk": 225, "model": "core.team", "fields": {"coachEmail": "mocciafam@comcast.net", "division": 2, "name": "Falcons #2", "club": 1, "season": 1, "skillLevel": 3, "managerEmail": "eyeskat@comcast.net", "coachName": "Mike Moccia", "managerName": "Nicle Cohen"}}, {"pk": 226, "model": "core.team", "fields": {"coachEmail": "rick67@aol.com", "division": 2, "name": "Vikings #2", "club": 10, "season": 1, "skillLevel": 3, "managerEmail": "dfo12@yahoo.com", "coachName": "Rick Clement", "managerName": "Dave Olinger"}}, {"pk": 227, "model": "core.team", "fields": {"coachEmail": "jjab10@wowway.com", "division": 2, "name": "Glenview #2", "club": 5, "season": 1, "skillLevel": 3, "managerEmail": "stars_squirts@yahoo.com", "coachName": "John Jablonski", "managerName": "Kathy Harris"}}, {"pk": 228, "model": "core.team", "fields": {"coachEmail": "Slycop1@yahoo.com", "division": 2, "name": "Hawks #2", "club": 17, "season": 1, "skillLevel": 3, "managerEmail": "Schudzik@comcast.net", "coachName": "Dave Kub", "managerName": "Suzy Chudzik"}}, {"pk": 229, "model": "core.team", "fields": {"coachEmail": "cimes@admiralshockeyclub.com", "division": 2, "name": "Admirals #1", "club": 22, "season": 1, "skillLevel": 3, "managerEmail": "chicagomckees@comcast.net", "coachName": "Chris Imes", "managerName": "Matt McKee"}}, {"pk": 230, "model": "core.team", "fields": {"coachEmail": "jmcnicholasiv@gmail.com", "division": 2, "name": "Jets #2", "club": 11, "season": 1, "skillLevel": 3, "managerEmail": "david@hunresearch.com", "coachName": "John McNicholas", "managerName": "Dave Nuelle"}}, {"pk": 231, "model": "core.team", "fields": {"coachEmail": "", "division": 2, "name": "Express #2", "club": 7, "season": 1, "skillLevel": 3, "managerEmail": "noemail@email.com", "coachName": "", "managerName": "notlisted"}}, {"pk": 232, "model": "core.team", "fields": {"coachEmail": "", "division": 2, "name": "Blues #2", "club": 2, "season": 1, "skillLevel": 3, "managerEmail": "noemail@email.com", "coachName": "", "managerName": "not listed"}}, {"pk": 233, "model": "core.team", "fields": {"coachEmail": "Hawaii91@foxvalley.net", "division": 4, "name": "Yellow Jackets #1", "club": 15, "season": 1, "skillLevel": 6, "managerEmail": "mligock@pacincorporated.com", "coachName": "Glenn Busch", "managerName": "Mark Ligocki"}}, {"pk": 1, "model": "core.userprofile", "fields": {"confirmed": null, "confirmation": null, "club": 1, "phone": "123", "user": 1, "team": 1, "email": "nihlapp@gmail.com"}}, {"pk": 2, "model": "core.userprofile", "fields": {"confirmed": null, "confirmation": null, "club": 1, "phone": "123", "user": 2, "team": 1, "email": "nihlapp@gmail.com"}}, {"pk": 3, "model": "core.userprofile", "fields": {"confirmed": null, "confirmation": null, "club": 1, "phone": "123", "user": 3, "team": 1, "email": "nihlapp@gmail.com"}}, {"pk": 4, "model": "core.userprofile", "fields": {"confirmed": null, "confirmation": null, "club": 1, "phone": "123", "user": 4, "team": 1, "email": "nihlapp@gmail.com"}}, {"pk": 5, "model": "core.userprofile", "fields": {"confirmed": false, "confirmation": "2cb52449f36ab0d5396187abf5c705fcb8b3e8fcfc6a88b5c3b672baa6640e6e", "club": 9, "phone": "", "user": 5, "team": 191, "email": "nihlapp@gmail.com"}}, {"pk": 6, "model": "core.userprofile", "fields": {"confirmed": false, "confirmation": "a86e6af66fa7fa9f25969656905c7d590a739879793f7b708e91760876cc2f3c", "club": 17, "phone": "", "user": 6, "team": 199, "email": "nihlapp@gmail.com"}}, {"pk": 7, "model": "core.userprofile", "fields": {"confirmed": false, "confirmation": "070a951659089a1370d1963425d54dcc84917d7ff8da35dc7f9e259db25b50c7", "club": 15, "phone": "", "user": 7, "team": 198, "email": "nihlapp@gmail.com"}}, {"pk": 8, "model": "core.userprofile", "fields": {"confirmed": false, "confirmation": "e7ed7a45e9dad70a3c96d49e3f80ccd87b4a7fd12129112cb707701c8d11a873", "club": 25, "phone": "", "user": 8, "team": 197, "email": "nihlapp@gmail.com"}}, {"pk": 9, "model": "core.userprofile", "fields": {"confirmed": false, "confirmation": "11f121679154e8399ba2b39570170ff9a3a79821cae89632618feb5159239f82", "club": 18, "phone": "", "user": 9, "team": 196, "email": "nihlapp@gmail.com"}}, {"pk": 10, "model": "core.userprofile", "fields": {"confirmed": false, "confirmation": "3f3e7317f886d7746cda4e497cb23bfbe818d708f67af5bfc7b2563aeaa2b2b8", "club": 1, "phone": "", "user": 10, "team": 195, "email": "nihlapp@gmail.com"}}, {"pk": 11, "model": "core.userprofile", "fields": {"confirmed": false, "confirmation": "7d0741db8243b3da7979990dd8d1111202fdc5a066b3eb8b56fcfe38cf13deaa", "club": 19, "phone": "", "user": 11, "team": 194, "email": "nihlapp@gmail.com"}}, {"pk": 12, "model": "core.userprofile", "fields": {"confirmed": false, "confirmation": "62a9810fada4189a06827632ec94a85dd5e3f07d3a455fee3346ae5ad466522c", "club": 7, "phone": "", "user": 12, "team": 193, "email": "nihlapp@gmail.com"}}, {"pk": 1, "model": "core.event", "fields": {"dateTimeCancelled": null, "dateTimeCreated": null, "dateTimeScheduled": null, "homeTeam": 1, "season": 1, "awayTeam": 11, "eventStatus": 3, "rink": 1, "eventType": 1, "dateTimeEvent": "2009-11-04 13:00:00", "dateTimeConfirmed": null}}, {"pk": 2, "model": "core.event", "fields": {"dateTimeCancelled": null, "dateTimeCreated": null, "dateTimeScheduled": null, "homeTeam": 191, "season": 1, "awayTeam": 12, "eventStatus": 4, "rink": 29, "eventType": 1, "dateTimeEvent": "2009-09-30 18:20:00", "dateTimeConfirmed": null}}, {"pk": 3, "model": "core.event", "fields": {"dateTimeCancelled": null, "dateTimeCreated": null, "dateTimeScheduled": null, "homeTeam": 191, "season": 1, "awayTeam": 13, "eventStatus": 3, "rink": 29, "eventType": 1, "dateTimeEvent": "2009-10-04 11:40:00", "dateTimeConfirmed": null}}, {"pk": 4, "model": "core.event", "fields": {"dateTimeCancelled": null, "dateTimeCreated": null, "dateTimeScheduled": null, "homeTeam": 191, "season": 1, "awayTeam": 14, "eventStatus": 3, "rink": 29, "eventType": 1, "dateTimeEvent": "2009-11-11 11:40:00", "dateTimeConfirmed": null}}, {"pk": 5, "model": "core.event", "fields": {"dateTimeCancelled": null, "dateTimeCreated": null, "dateTimeScheduled": null, "homeTeam": 191, "season": 1, "awayTeam": 15, "eventStatus": 3, "rink": 29, "eventType": 1, "dateTimeEvent": "2009-10-21 18:20:00", "dateTimeConfirmed": null}}, {"pk": 1, "model": "core.eventstats", "fields": {"referee1Level": "", "referee2Level": "", "referee3Name": "", "referee2Name": "", "referee3Level": "", "winner": 191, "referee1IHOANum": "", "loser": 12, "referee1Name": "", "majorPenaltiesAssessed": false, "referee3IHOANum": "", "tie": false, "event": 2, "referee2IHOANum": ""}}, {"pk": 1, "model": "core.eventgoal", "fields": {"team": 191, "period": 1, "againstTeam": 12, "player": 0, "time": "2001-01-01 01:00:00", "event": 2}}, {"pk": 2, "model": "core.eventgoal", "fields": {"team": 191, "period": 1, "againstTeam": 12, "player": 0, "time": "2001-01-01 01:00:00", "event": 2}}, {"pk": 3, "model": "core.eventgoal", "fields": {"team": 12, "period": 1, "againstTeam": 191, "player": 0, "time": "2001-01-01 01:00:00", "event": 2}}, {"pk": 1, "model": "core.invitation", "fields": {"used": false, "group": 3, "name": "Jayme Bielanski", "club": 5, "key": "f2b2dc63dc0d6ef870b5c1966b1a2e118f3b887de82726fbb7bb11085b24d4f1", "team": 62, "email": "jayme.bielanski@kraft.com"}}, {"pk": 2, "model": "core.invitation", "fields": {"used": true, "group": 3, "name": "Lessa Drazner", "club": 9, "key": "7940c4f78075c94938e2bddaa7e231974f6564e705948bfebb1249b24845ee3a", "team": 191, "email": "nihlapp@gmail.com"}}, {"pk": 3, "model": "core.invitation", "fields": {"used": true, "group": 3, "name": "Jody DuFort", "club": 17, "key": "d119f23ad97c8bdcb8db2fecf94761697b2375d1923b190f6c7714f5fe62d2f1", "team": 199, "email": "nihlapp@gmail.com"}}, {"pk": 4, "model": "core.invitation", "fields": {"used": false, "group": 3, "name": "Melissa Caruso", "club": 31, "key": "f640666aa595e2a1e092aa6fda10fd4a1a0cf86c03ad69da828acdeeaf5f9dc4", "team": 192, "email": "nihlapp@gmail.com"}}, {"pk": 5, "model": "core.invitation", "fields": {"used": true, "group": 3, "name": "Robin Kliczko", "club": 7, "key": "9c3b24e1e72f5533b7e7c492e40bbcf19014522c6e6101c82ef06c41669d2dfb", "team": 193, "email": "nihlapp@gmail.com"}}, {"pk": 6, "model": "core.invitation", "fields": {"used": true, "group": 3, "name": "Renee Kuta", "club": 19, "key": "47f90590f12ae1f23e0a67b5cd986b23097495dadd60116d14f759db77752682", "team": 194, "email": "nihlapp@gmail.com"}}, {"pk": 7, "model": "core.invitation", "fields": {"used": true, "group": 3, "name": "Mike Danielewicz", "club": 1, "key": "de93d3405c8342536ab7a0f66b3aee91b22c86d03f604bad0930f8a04d3ef2bf", "team": 195, "email": "nihlapp@gmail.com"}}, {"pk": 8, "model": "core.invitation", "fields": {"used": true, "group": 3, "name": "Barb Pretkelis", "club": 18, "key": "e84e528fbb176538c466b3cd5d501b1429d0ddfaffd573457415769c4a39cfd9", "team": 196, "email": "nihlapp@gmail.com"}}, {"pk": 9, "model": "core.invitation", "fields": {"used": true, "group": 3, "name": "Peter Giangreco", "club": 25, "key": "1b176bdeec2628732e9d4dc2a3cae20c946336357377f5f194474737730b96a8", "team": 197, "email": "nihlapp@gmail.com"}}, {"pk": 10, "model": "core.invitation", "fields": {"used": true, "group": 3, "name": "Trisha Nasta", "club": 15, "key": "d19a7d5cb153729eb2e54557e15d0855f54aca6f99732dc39b472da4110943fe", "team": 198, "email": "nihlapp@gmail.com"}}]
